{"type": "FeatureCollection", "features": [{"type": "Feature", "geometry": {"type": "Polygon", "coordinates": [[[5.049552078658943, 52.80044433079322], [5.0538319525279, 52.79676075392371], [5.055369645868099, 52.795438942407586], [5.055555776184136, 52.79527893713695], [5.062425918517105, 52.78935627395844], [5.066716741533664, 52.78565714387182], [5.0688915267659524, 52.78379196215674], [5.075312418268709, 52.77827372098619], [5.079572238501691, 52.774569437936854], [5.081284738474578, 52.773134668040306], [5.059837145655985, 52.77309537135362], [5.05982531563568, 52.7677650034614], [5.055371761874387, 52.763931868371365], [5.050872973419972, 52.76014849021396], [5.050396815197901, 52.76013638926391], [5.050220691136905, 52.76031259840584], [5.049010317966192, 52.76030131559978], [5.048734630230109, 52.76013912788051], [5.041229020118206, 52.76005469935019], [5.0413199980255845, 52.75271925826645], [5.040494089627019, 52.7526352470009], [5.039960146779863, 52.752570426826324], [5.039491681119319, 52.75254200963986], [5.037910538121542, 52.75250118821054], [5.036057428170468, 52.75239249306916], [5.035832973639922, 52.752365023802405], [5.035435547212021, 52.75231780288172], [5.034989185304349, 52.75226683230296], [5.0341692355348435, 52.75219768800906], [5.033760576083066, 52.75216781057515], [5.033697356930801, 52.76001734650535], [5.034381409232984, 52.7704024779066], [5.03444664855861, 52.77149149329887], [5.034485642388136, 52.7724411766216], [5.03451781942097, 52.77304101490003], [5.0321537969884345, 52.77303174846585], [5.026310098111164, 52.778056253677775], [5.033204382763085, 52.780996841718654], [5.032483294957681, 52.782116226793896], [5.031711368743042, 52.78308024677615], [5.030457325878348, 52.78426123471885], [5.017784063979417, 52.79514394284848], [5.020370327506171, 52.79621313693954], [5.024658735657736, 52.79802204260501], [5.035621592849755, 52.80251249322908], [5.035772856126918, 52.802645012719104], [5.043356565617761, 52.805767638542655], [5.049552078658943, 52.80044433079322]]]}, "properties": {"key": 1, "source_names": ["Bedrijventerrein Agriport"], "ha": 1103.5}}, {"type": "Feature", "geometry": {"type": "MultiPolygon", "coordinates": [[[[5.040518, 52.7654911], [5.0402814, 52.7654913], [5.0401683, 52.7654914], [5.040001, 52.7654916], [5.0400015, 52.7652574], [5.0400019, 52.7650722], [5.0405322, 52.7650771], [5.0407708, 52.7649337], [5.040773, 52.7646756], [5.0407849, 52.7633343], [5.0407902, 52.7627335], [5.0408116, 52.7603075], [5.0408128, 52.7601742], [5.0346005, 52.7601229], [5.0345533, 52.7620253], [5.0345925, 52.7632488], [5.0345889, 52.7644617], [5.0346685, 52.7652122], [5.0347602, 52.7660773], [5.0348185, 52.7669688], [5.0348781, 52.7678915], [5.036435, 52.7679039], [5.0398169, 52.7679076], [5.0401558, 52.7678662], [5.0407327, 52.767531], [5.0407502, 52.7674264], [5.0407634, 52.7660815], [5.0407677, 52.765643], [5.040518, 52.7654911]]], [[[5.0333401, 52.778759], [5.0334527, 52.7783048], [5.0325354, 52.7779186], [5.0336351, 52.7769711], [5.0336834, 52.7766141], [5.0328512, 52.7762698], [5.0328036, 52.7762165], [5.0327523, 52.7762014], [5.03266, 52.7762076], [5.0326176, 52.7761993], [5.0325891, 52.7761533], [5.0325285, 52.7762025], [5.0323404, 52.7761283], [5.0325391, 52.7759725], [5.0325759, 52.7759351], [5.0325795, 52.7758899], [5.0325537, 52.7758528], [5.0325152, 52.7758296], [5.032312, 52.7757459], [5.0317288, 52.7754914], [5.0307759, 52.7750789], [5.030589, 52.7750033], [5.0305011, 52.7749809], [5.0304209, 52.7749863], [5.0303387, 52.7750245], [5.0302668, 52.7750812], [5.0297278, 52.7755288], [5.0268606, 52.7779769], [5.0186813, 52.7853619], [5.0251669, 52.7881033], [5.0303972, 52.7829415], [5.032028, 52.7802711], [5.0319783, 52.7799459], [5.0320204, 52.7799045], [5.0333401, 52.778759]]]]}, "properties": {"key": "Microsoft", "source_names": ["Microsoft Datacenter", "Microsoft Datacenter West Europe", "Microsoft Datacenter"], "ha": 99.7}}, {"type": "Feature", "geometry": {"type": "Polygon", "coordinates": [[[5.0265336, 52.7891958], [5.0282525, 52.7899215], [5.0282099, 52.7899592], [5.0285527, 52.7901077], [5.0283687, 52.790264], [5.0284171, 52.7902839], [5.0284918, 52.7903147], [5.028565, 52.7903448], [5.0286009, 52.7903596], [5.0287907, 52.790189], [5.0288681, 52.7902232], [5.028979, 52.7902694], [5.0291154, 52.7903256], [5.0291491, 52.7902957], [5.0292526, 52.7903395], [5.0293191, 52.7903676], [5.0340638, 52.792376], [5.0340934, 52.7923885], [5.0341275, 52.7924029], [5.0341999, 52.7924336], [5.0342542, 52.7924566], [5.0342844, 52.7924694], [5.0351554, 52.7928381], [5.0331452, 52.7945846], [5.024593, 52.790936], [5.0245456, 52.7909101], [5.0245704, 52.7908886], [5.02461, 52.7908545], [5.0265336, 52.7891958]]]}, "properties": {"key": "Google", "source_names": ["Google Datacenter Middenmeer"], "ha": 16.6}}, {"type": "Feature", "geometry": {"type": "MultiPolygon", "coordinates": [[[[5.0623168, 52.7741226], [5.0620083, 52.7739911], [5.0616248, 52.7743169], [5.0614922, 52.774257], [5.0613499, 52.7741927], [5.0612177, 52.7743034], [5.0611571, 52.7743541], [5.0610136, 52.7744771], [5.0609965, 52.7744913], [5.0609737, 52.774482], [5.0609194, 52.7745268], [5.0609081, 52.774522], [5.0606468, 52.7747468], [5.0605881, 52.7747964], [5.0612137, 52.7750677], [5.0623168, 52.7741226]]], [[[5.034492, 52.7932388], [5.0348103, 52.7929676], [5.0343841, 52.7927846], [5.0341947, 52.7929459], [5.0340657, 52.7930557], [5.034492, 52.7932388]]]]}, "properties": {"key": "Подстанции TenneT", "source_names": ["150 kV Agriport A7", "150 kV Google Datacenter Middenmeer"], "ha": 0.7}}]}