{"type": "FeatureCollection", "features": [{"type": "Feature", "geometry": {"type": "Polygon", "coordinates": [[[4.876654749910094, 52.33808362290669], [4.876709368240305, 52.33780253233147], [4.87680298554444, 52.33752532182153], [4.876934932194458, 52.33725401963614], [4.877014987331313, 52.337121210890444], [4.877104245502277, 52.336990625773815], [4.878646383502143, 52.335086633684384], [4.878107938448509, 52.33503273843137], [4.876899383651617, 52.33500428321173], [4.868825196005406, 52.33499060882293], [4.868681015540185, 52.33810836482909], [4.8669216615633095, 52.33802728712527], [4.866691144981199, 52.33800763310812], [4.866005011874571, 52.337971062775935], [4.8646048155051425, 52.33791130447536], [4.863257905117494, 52.33784366746682], [4.862663063731052, 52.33780655602693], [4.862382637425626, 52.3377778374532], [4.862256130344106, 52.33775281178707], [4.862074819910206, 52.33769805398862], [4.861969304110232, 52.337653698547], [4.86173411528116, 52.337538267338836], [4.8616224366676395, 52.337471693405476], [4.861314182479203, 52.33726561874466], [4.8612078846587785, 52.33720445199602], [4.861023419345467, 52.3370732914248], [4.860947136431981, 52.337031204088156], [4.860760308694476, 52.33693975857709], [4.8605998378717565, 52.336878871629736], [4.860467161132758, 52.33684362444787], [4.860304475217807, 52.33682848402349], [4.859983725614053, 52.33682413485717], [4.859842167505427, 52.3368312966975], [4.859131318246704, 52.336907004575345], [4.858579476675532, 52.336944285594434], [4.85820797139963, 52.33699178023574], [4.857593699931189, 52.33699674522093], [4.857612007728877, 52.33786136163407], [4.857574609141036, 52.338850766641094], [4.857093540048524, 52.33882668325698], [4.857089610544491, 52.33890013175192], [4.85711002138866, 52.33891853125082], [4.8571529266508415, 52.33908554549071], [4.857157577037412, 52.33915933798374], [4.857131300870102, 52.33956804731424], [4.857153633860736, 52.33988129040114], [4.857193343810205, 52.34016234514956], [4.857319879939442, 52.340843906245944], [4.8574078937620415, 52.341217544398404], [4.8574567737717, 52.34153458211518], [4.857429039098106, 52.34176936241935], [4.857328719808602, 52.34209918710224], [4.857334685117934, 52.34214156417975], [4.857294379958813, 52.34225169968349], [4.858049212264813, 52.3423578690476], [4.8591685597937255, 52.3425160094275], [4.859465213734873, 52.34254361241636], [4.859673731134761, 52.34254668082561], [4.862283343674929, 52.34251010632182], [4.862501257665754, 52.34251645603592], [4.862651680891624, 52.342531745745546], [4.862814198572366, 52.34255799099926], [4.862999151592366, 52.34260304790639], [4.8647987992958965, 52.34315660537233], [4.864977128167856, 52.34139347102516], [4.876046804276087, 52.341805780724535], [4.877140111800154, 52.34181807299102], [4.878312613207373, 52.34179099666521], [4.879033072429307, 52.34177435432067], [4.885399636162242, 52.34200433215424], [4.885291366062505, 52.34123143838465], [4.885064205450632, 52.34123985818945], [4.884622439184589, 52.338114053623315], [4.884221702859021, 52.338171293161665], [4.883955777641872, 52.33820036172415], [4.883114755427478, 52.338268460419584], [4.881919563099142, 52.33832277347515], [4.880612175725028, 52.33836568318685], [4.879274862585664, 52.33837306540024], [4.876639536234532, 52.33836655512489], [4.876654749910094, 52.33808362290669]]]}, "properties": {"key": 1, "source_names": ["Zuidas-Noord", "Zuidas-Zuid"], "ha": 104.3}}, {"type": "Feature", "geometry": {"type": "Polygon", "coordinates": [[[4.9645396072471835, 52.35746917827337], [4.966801938918896, 52.35691574756412], [4.96971141540679, 52.35636302122969], [4.969593771650743, 52.35610176568548], [4.9694027023082255, 52.35570842848855], [4.969365971407136, 52.35563412347139], [4.9693300169536565, 52.355641033896376], [4.969312794618758, 52.35561031610124], [4.969500510893286, 52.35557699627907], [4.969521405878853, 52.35549826600285], [4.969396782114098, 52.355423677757706], [4.969321444965416, 52.355382293140785], [4.969220367705915, 52.35532936726775], [4.969118608743078, 52.35528338637944], [4.968939684248485, 52.35518764654381], [4.968873128613169, 52.35515373447234], [4.968736077004341, 52.35508818814374], [4.968540790565199, 52.355015470222924], [4.968309045157246, 52.35492702931227], [4.968213829864958, 52.354900205578865], [4.968079397857938, 52.354862089184856], [4.967919711266055, 52.35481238792481], [4.967725033320513, 52.35473457478253], [4.967610039563757, 52.35469146667341], [4.967436390998517, 52.354628224739876], [4.96741744780313, 52.3546213269125], [4.967216686531135, 52.35454128037798], [4.967032328559116, 52.35446670232004], [4.966844850152521, 52.35439310153497], [4.9667233812130025, 52.3543534927318], [4.966608990999301, 52.35431350451206], [4.966522390544809, 52.354279322139995], [4.966428611302506, 52.35425456024339], [4.966355771450862, 52.354236676408995], [4.966280664794578, 52.354207091485], [4.9662512655505795, 52.35418994626872], [4.966238875160493, 52.35416385587811], [4.966157085922055, 52.35426309461235], [4.966056259754369, 52.354385408850256], [4.96585613639517, 52.35465124446453], [4.9658218704881145, 52.35469676195569], [4.964955748782268, 52.353275741285536], [4.964537534221139, 52.352773281745186], [4.963939647884737, 52.35205493553304], [4.962535033351756, 52.35036721829646], [4.96191499159085, 52.349564753984545], [4.961364989622977, 52.34885290971826], [4.961224752087845, 52.348715738131474], [4.961169340663015, 52.34866154059387], [4.961159017347423, 52.34865144619902], [4.960627054786591, 52.34813109264984], [4.960533987718369, 52.34804005331256], [4.960427587384542, 52.347935979193856], [4.955345814688257, 52.350071679995644], [4.949612230433079, 52.35248011320609], [4.948797483444145, 52.352831294538284], [4.947693316429422, 52.35330581269997], [4.9475766967571095, 52.35337432426778], [4.9418895128585705, 52.355741654180854], [4.939703262203064, 52.35665714719334], [4.938575410655088, 52.357103099336214], [4.9376383525036625, 52.35749404174528], [4.937141949157488, 52.35769016367023], [4.937426350108905, 52.35773911306989], [4.9377924638463675, 52.35778741033199], [4.940459567467168, 52.35838039399988], [4.940699723222646, 52.358403976084944], [4.940942444214864, 52.35841335779904], [4.941148137868198, 52.358410142541075], [4.9446763380660785, 52.35826290071039], [4.952935688868688, 52.35790716256695], [4.9564918713821005, 52.35778745234785], [4.957083306273919, 52.35776752911572], [4.958534318086415, 52.35779345534969], [4.958736309773227, 52.35782503240566], [4.958929845581419, 52.357873421447984], [4.95908160181256, 52.35794182744317], [4.959181833608299, 52.35801175460695], [4.959442926962711, 52.35823204288262], [4.961304927462946, 52.359130811793506], [4.962297516948063, 52.35838775420379], [4.9645396072471835, 52.35746917827337]]]}, "properties": {"key": 2, "source_names": ["Science Park-Noord", "Science Park-Zuid"], "ha": 126.7}}, {"type": "Feature", "geometry": {"type": "Polygon", "coordinates": [[[4.928545228176203, 52.373679959273694], [4.92939683604079, 52.3734737515341], [4.929849618477956, 52.37334444260371], [4.9301849438620575, 52.373224421360135], [4.930545174444438, 52.37307567169288], [4.930874043945835, 52.37291907966245], [4.93117219162854, 52.37274961488452], [4.931426422888052, 52.372585220161234], [4.931743124261025, 52.37234883111686], [4.931968414968273, 52.37215520380044], [4.929804503130386, 52.370819167275876], [4.928826864596367, 52.37025760152886], [4.9265364626357036, 52.36884860942152], [4.926046588577057, 52.36853677067869], [4.926123813017793, 52.368488106418745], [4.925866130386194, 52.36832969211505], [4.925791291572424, 52.368373449231825], [4.92535664141731, 52.368094870533824], [4.924290995626473, 52.367441680099205], [4.924014356682983, 52.36748985085778], [4.923755211543794, 52.3675541774367], [4.922293168656724, 52.368050355259626], [4.920193777632089, 52.36875016303294], [4.920700227666011, 52.36930832756595], [4.921058606961524, 52.36954528868145], [4.921273950728987, 52.36946158890794], [4.92249063111306, 52.37022307172387], [4.92373546598082, 52.371174876597784], [4.9278586963681805, 52.37376017376436], [4.927901427766073, 52.373852436370655], [4.928545228176203, 52.373679959273694]]]}, "properties": {"key": 3, "source_names": ["Oostenburg"], "ha": 24.8}}, {"type": "Feature", "geometry": {"type": "Polygon", "coordinates": [[[4.918477446424979, 52.344674500744], [4.918880535633724, 52.343779570148136], [4.919226381043779, 52.34362605245994], [4.919289694768215, 52.343608695803496], [4.919369566054795, 52.343602046033126], [4.919437532166957, 52.343608300481854], [4.919498496037101, 52.34362453056762], [4.919574149239726, 52.343663054305026], [4.9197788231946245, 52.343563631661254], [4.919903143562274, 52.34343299161943], [4.920073070559031, 52.34329829825186], [4.920189899236853, 52.34322261527864], [4.920444070244998, 52.34309079732328], [4.920463846538169, 52.343049414914276], [4.920467885701609, 52.342764429860324], [4.920354729264609, 52.34275902229892], [4.920272083540826, 52.342746401025636], [4.919690532101091, 52.34261579616907], [4.919453308502786, 52.342576553168634], [4.914963492989342, 52.34186039545135], [4.914983542715781, 52.342145404691536], [4.914940178244162, 52.342426898353175], [4.914858657231107, 52.34263693102015], [4.9141323952179965, 52.34352993696324], [4.913852145258254, 52.34387452974709], [4.913437647789297, 52.34469852957579], [4.913280199876781, 52.34514498506485], [4.913187071118248, 52.34560379539585], [4.917409167614967, 52.3465047869047], [4.918477446424979, 52.344674500744]]]}, "properties": {"key": 4, "source_names": ["De Omval"], "ha": 14.8}}, {"type": "Feature", "geometry": {"type": "Polygon", "coordinates": [[[4.8442256313494205, 52.394942917173125], [4.84416694036907, 52.39460568093191], [4.844130346724867, 52.39427801899168], [4.844109724046018, 52.393847170427954], [4.844126612739026, 52.39328648654809], [4.844205955274975, 52.39180689741329], [4.8443285611998235, 52.38952066062525], [4.844364504146836, 52.38889829095033], [4.844656112877084, 52.38889705650791], [4.844654633359952, 52.388918323664555], [4.8446800012191655, 52.38891844884492], [4.844682036677282, 52.388754513163825], [4.844657777576188, 52.388755022202744], [4.844661356985498, 52.388620977759345], [4.8447540368792215, 52.38692072747858], [4.844725122139224, 52.38638221246773], [4.844791213982135, 52.38514396239696], [4.844804269116873, 52.3851442109238], [4.844806406322699, 52.38510639139254], [4.844573240793428, 52.38510148566439], [4.843927089616583, 52.38508708232023], [4.84328659251059, 52.38509913430317], [4.839829405187819, 52.38503410790924], [4.839250872612293, 52.385015722283974], [4.836006265361045, 52.38494842131613], [4.8315155626121244, 52.38487770815987], [4.831586319161924, 52.38741044905333], [4.828902368344245, 52.38755224631271], [4.819260602742319, 52.38748196759305], [4.819249298475719, 52.3890364136203], [4.826917195995172, 52.38907362622252], [4.827924341477552, 52.38914326852874], [4.828927986806665, 52.38922980066347], [4.829594759760186, 52.3892968442831], [4.830590876601257, 52.38941138654048], [4.831581486196168, 52.38954262072491], [4.83256582700687, 52.38969044453999], [4.833543181531176, 52.38985475591971], [4.833801226248759, 52.38991386075058], [4.833889992169148, 52.38993678969554], [4.834106899355254, 52.389992825606974], [4.8344340277527875, 52.39008894849841], [4.834923043777309, 52.39025708008708], [4.835125228789388, 52.39033595517976], [4.835388119351804, 52.39044754045199], [4.835704910704766, 52.3905968908618], [4.835990985078429, 52.39074752652001], [4.836291156699789, 52.39092359938104], [4.836529731372772, 52.39108087940046], [4.836929441884365, 52.39137606022518], [4.837238036328728, 52.39162105165001], [4.8406584438525355, 52.3942092301339], [4.841082029166428, 52.39442057946153], [4.841349033091555, 52.39454011537385], [4.841900020394579, 52.39476077581678], [4.842239122327426, 52.394880237128774], [4.8423725652691605, 52.394913952695084], [4.842506193282978, 52.394931428169436], [4.8429426769391615, 52.39505919045861], [4.843264587434803, 52.39513970697231], [4.84368023293697, 52.39522987411919], [4.843984060385039, 52.39525642438307], [4.844311742052217, 52.3953026494334], [4.8442256313494205, 52.394942917173125]]]}, "properties": {"key": 5, "source_names": ["Sloterdijk Stationskwartier"], "ha": 86.5}}, {"type": "Feature", "geometry": {"type": "Polygon", "coordinates": [[[4.93714882873945, 52.3114431651098], [4.93986368098259, 52.3083793770167], [4.95119524972818, 52.2951469852979], [4.94796147793594, 52.293708238825], [4.94933806269789, 52.291751544224], [4.94464903766535, 52.2904559316178], [4.93680353543008, 52.2993316546521], [4.92774051588958, 52.3083922979888], [4.93246755683288, 52.3108479520889], [4.93494160301208, 52.310768280984], [4.93714882873945, 52.3114431651098]]]}, "properties": {"key": 6, "source_names": ["AMSTEL III BEDRIJVENZONE"], "ha": 150.6}}, {"type": "Feature", "geometry": {"type": "MultiPolygon", "coordinates": [[[[5.18491306540614, 52.3468578779042], [5.1833144675931, 52.3487109811283], [5.18496557340115, 52.3468765620396], [5.18491306540614, 52.3468578779042]]], [[[5.19542901912887, 52.3561097160613], [5.19542801804585, 52.3561097144415], [5.19237808403145, 52.3550797365152], [5.19286911410645, 52.3545197365753], [5.1941500839353, 52.3549497293968], [5.19569704842512, 52.3554697169291], [5.19582304636809, 52.3555097166823], [5.1961730632133, 52.3551197150538], [5.19615607457117, 52.3549597163541], [5.19615974276719, 52.3549556149309], [5.19692511440825, 52.3540997196965], [5.19689033512365, 52.3540900569954], [5.19685311632531, 52.3540797189913], [5.19736914161971, 52.3535097194339], [5.19828818900762, 52.3524897211163], [5.19714321585168, 52.3520997288201], [5.19699121545456, 52.3520897297758], [5.19659721613407, 52.3521297314701], [5.1965692156219, 52.3521697298336], [5.19552123954991, 52.3518097399937], [5.19477819857935, 52.3526397370977], [5.19404417573462, 52.3531297365531], [5.19374715847995, 52.3534597346033], [5.19315213312258, 52.3541197376051], [5.19283611389669, 52.3544797379214], [5.19234512718945, 52.3543097398508], [5.19289415559107, 52.3536997390535], [5.19301715834696, 52.3535597393311], [5.19395221017483, 52.3525097424476], [5.1939722089674, 52.3524897434691], [5.19487225621592, 52.3514897395565], [5.1933632893421, 52.3509797500291], [5.19289931137569, 52.3505697542419], [5.19316432820707, 52.3502697549688], [5.19278035030456, 52.3498597574982], [5.19276334869728, 52.3498497578359], [5.19265735536898, 52.3497397587419], [5.19254135918243, 52.3496497603398], [5.19241636518989, 52.3495497617837], [5.19228337161959, 52.3494597621395], [5.19217437619095, 52.3493997629766], [5.18885444758695, 52.3481797865134], [5.18881644965256, 52.3481597865626], [5.18853845534812, 52.3480597864969], [5.18552251729325, 52.346939809122], [5.18513353157947, 52.3467998112039], [5.18512653264279, 52.3468098114793], [5.18511452782347, 52.3468198131022], [5.18509752877405, 52.3468398094297], [5.18471950851321, 52.3472598099206], [5.1844874948039, 52.34751980978], [5.18426648304017, 52.347759808994], [5.18392282168449, 52.3481448940197], [5.18344543696928, 52.3486798090706], [5.18342043883128, 52.348709808102], [5.18339143448729, 52.3487598084791], [5.18337242906902, 52.3488098080751], [5.18336643075929, 52.3488698063045], [5.18337242498604, 52.3489198084606], [5.18339042452882, 52.3489698070006], [5.18339142253189, 52.3489698051222], [5.18342641885401, 52.3490498066272], [5.18343141861944, 52.3490598067672], [5.18343341950248, 52.3490798076711], [5.18343041915297, 52.3490898075338], [5.1834224151118, 52.3491098083075], [5.18340941522149, 52.3491298049818], [5.18339141650296, 52.3491498056388], [5.18337041400159, 52.3491598059894], [5.1833454150907, 52.3491698066508], [5.18331741336, 52.3491798084311], [5.18330641629842, 52.3491798065839], [5.18326441467942, 52.3491898076273], [5.18313941121392, 52.3492098073699], [5.18308241310525, 52.349219809483], [5.18296940808948, 52.3492298085152], [5.18285441140578, 52.3492398084986], [5.1827394094306, 52.3492398096297], [5.18251441371421, 52.3492098114315], [5.18245991335539, 52.3491998093116], [5.18240541300458, 52.3491898107616], [5.18230141486038, 52.3491598127205], [5.18229041707792, 52.3491498111472], [5.18126243481322, 52.3487998186836], [5.18101744219284, 52.3487198197874], [5.18088743375839, 52.3488698197864], [5.1796923707051, 52.3501998209251], [5.17964436352544, 52.3502498212677], [5.17973336417931, 52.3502798205425], [5.18003035775362, 52.3503798197042], [5.18001535989163, 52.3503998197009], [5.18039934753782, 52.3505398166398], [5.18033334743784, 52.3506098165662], [5.18031834815834, 52.3506298183953], [5.18034034235698, 52.3507098169732], [5.1802941492384, 52.350759858489], [5.18029434143897, 52.3507608160064], [5.18023861628192, 52.350883280188], [5.18039713037463, 52.3509362648634], [5.18055732713452, 52.3509898148848], [5.18067432529229, 52.3510298124626], [5.18092288589575, 52.350752688817], [5.18096133953615, 52.3507098137971], [5.181790326402, 52.3509898062603], [5.18186132645851, 52.3510098063446], [5.18521025848419, 52.3521397841914], [5.18528025641422, 52.3521697864193], [5.19160112740909, 52.3542897453268], [5.19160412762676, 52.3542897439876], [5.19218011716586, 52.3544897401058], [5.19220111723865, 52.3544697403809], [5.19234112592417, 52.3543097404615], [5.19281611368777, 52.3544997384994], [5.19237308604066, 52.3550797354888], [5.19231108878409, 52.3550597385767], [5.19224708534935, 52.3551397353714], [5.19213707650033, 52.3553097365246], [5.19205206728986, 52.3554797364999], [5.19199405873001, 52.3556397345394], [5.19195004681852, 52.3559197338842], [5.19195303620018, 52.356089734019], [5.19198202759159, 52.3562697316557], [5.19200702533835, 52.3563597306898], [5.19203601876775, 52.3564397348875], [5.19211901003433, 52.3566197306134], [5.192325987252, 52.3569897286715], [5.19339599430778, 52.3567697230395], [5.19382799593114, 52.3566897217797], [5.19560500725316, 52.3563197129832], [5.19566300938772, 52.3562497151002], [5.19542901912887, 52.3561097160613]]]]}, "properties": {"key": 7, "source_names": ["GOOISEKANT"], "ha": 53.6}}]}