{"type": "FeatureCollection", "features": [{"type": "Feature", "geometry": {"type": "Polygon", "coordinates": [[[5.35286222685761, 51.6930956514697], [5.35289246919364, 51.6930954715348], [5.35305154721722, 51.6930966413809], [5.35325322267587, 51.6930926908783], [5.35340925859866, 51.6930808440166], [5.35377098611303, 51.6930313398354], [5.35394772340452, 51.6929924607355], [5.35416476669942, 51.692936343765], [5.3543673737665, 51.6928825324079], [5.35457421089519, 51.6928183761115], [5.35465996723833, 51.6927901849627], [5.35477587828181, 51.6927421015293], [5.3548658233339, 51.6927008690729], [5.3554216312331, 51.692473602482], [5.35580031719267, 51.6923175739048], [5.35590541908635, 51.6922739447596], [5.35681539191666, 51.6918962078026], [5.35827596994201, 51.69128453084], [5.35902679359923, 51.6909700795563], [5.35914845282016, 51.6909197280764], [5.3591456653586, 51.6909135523122], [5.35941037989492, 51.690800989211], [5.35942250803001, 51.6907865655309], [5.35942310885821, 51.6907735413354], [5.35938950405249, 51.690740428751], [5.35938571080866, 51.6907233766712], [5.35938774202788, 51.6906888433409], [5.35939575777511, 51.6906828319296], [5.35940316627409, 51.6906765417309], [5.35940995306258, 51.6906699727415], [5.35941608919438, 51.6906631609086], [5.35943448163373, 51.6906213058125], [5.35944011477556, 51.6905614707075], [5.3594859715147, 51.6904946969717], [5.35969186040544, 51.6903420576493], [5.35971564322134, 51.6903303511918], [5.35980716189861, 51.6903025800897], [5.35998616242753, 51.6902740112222], [5.36008046327257, 51.6902610176414], [5.36014064511742, 51.6902527261192], [5.3602085911611, 51.6902477351259], [5.36098095741602, 51.6901184303617], [5.36098941875536, 51.690116652523], [5.36099747551508, 51.6901142453987], [5.36100498305862, 51.6901112359222], [5.3610118401205, 51.6901076780021], [5.36101794544023, 51.6901036165584], [5.36102318328018, 51.6900991234736], [5.36102751021829, 51.6900942616575], [5.36103082497919, 51.6900891029959], [5.36103308413071, 51.6900837283755], [5.36103427315983, 51.6900782276782], [5.36103436310182, 51.6900726728057], [5.36103333944369, 51.6900671536397], [5.36103123105863, 51.6900617600715], [5.36078783954081, 51.6898770459882], [5.36031470757905, 51.6896427075779], [5.36014831177974, 51.6894411293205], [5.36394768284014, 51.686002005143], [5.36403937776646, 51.6859176211476], [5.3642336026423, 51.6857388688217], [5.36474772329932, 51.6852657141254], [5.36499178839527, 51.6850259740117], [5.36512304068895, 51.684916590578], [5.36516082791689, 51.6848819739256], [5.36647152566924, 51.683681643806], [5.36648414981765, 51.6836483256302], [5.3664904729057, 51.6836071683699], [5.36649679157199, 51.6835758175686], [5.36647473442987, 51.683556209765], [5.36644636005679, 51.6835326818576], [5.3664211489077, 51.6835170014664], [5.36638331510252, 51.6834993503611], [5.36588133386405, 51.6832876712963], [5.3658501210336, 51.6832745064789], [5.36567644848474, 51.683201272527], [5.36581005553689, 51.6831438692582], [5.36573681627454, 51.6831130163916], [5.36553641355464, 51.6830286406063], [5.36456359864374, 51.6826202359158], [5.36346847263263, 51.6821582450501], [5.36344153282583, 51.6821614664989], [5.36343886221137, 51.6821529897982], [5.36342358921255, 51.6821044937213], [5.36286864727588, 51.6821854478462], [5.36229876542267, 51.6822685714022], [5.36117467103747, 51.6824325305646], [5.35995062746162, 51.6826140013957], [5.35828128895417, 51.6828596007351], [5.35803585473733, 51.6828957099445], [5.35754093848028, 51.6829875386766], [5.35678999087668, 51.6831285654082], [5.35595453862353, 51.6832854565903], [5.35575914579361, 51.683322149544], [5.35548554323787, 51.6833735263084], [5.35485353232971, 51.683491490147], [5.35476277448071, 51.6835219541645], [5.35466209669882, 51.6835731158952], [5.35460770369118, 51.6836263307632], [5.35459996697557, 51.6836474785713], [5.35461494857682, 51.683767802848], [5.35463945687759, 51.6839729902309], [5.35464551274355, 51.6841396118152], [5.35463225600451, 51.6842569081281], [5.35459802649468, 51.6844425651907], [5.35457499171261, 51.6845230598478], [5.35452223990012, 51.6846656658001], [5.35444722351204, 51.6848218381709], [5.35437125355917, 51.6849559973799], [5.35427987366056, 51.6850827007574], [5.35400111523529, 51.6854466478227], [5.35373787158134, 51.6857868330273], [5.35310623533495, 51.6866500063393], [5.35280672163652, 51.6870509771337], [5.35247863046939, 51.6874857534629], [5.35224883425501, 51.6877786656218], [5.35217390918487, 51.6878741731302], [5.35142067572004, 51.6888697914584], [5.35135005837045, 51.6889631425026], [5.35120851046417, 51.6891608013477], [5.35114263676317, 51.6892527964527], [5.3510639989929, 51.6894103227559], [5.35102064404579, 51.6895542332958], [5.35098607315918, 51.6897088967687], [5.350974024642, 51.6898751443559], [5.35098786048669, 51.6900264700123], [5.3509982809237, 51.6901261466942], [5.3510292029256, 51.6902513570192], [5.35167114037465, 51.6922727423887], [5.35191140591268, 51.6930292866458], [5.35193346332134, 51.6930651393869], [5.3519844324677, 51.6931008659557], [5.35205393512459, 51.6931095786197], [5.35219426421927, 51.6931171078828], [5.35235689054484, 51.6931119698037], [5.35248264975839, 51.6931078812666], [5.35266551375027, 51.693097508436], [5.35267847318066, 51.693096775183], [5.35286222685761, 51.6930956514697]]]}, "properties": {"key": 1, "source_names": ["DE BRAND"], "ha": 72.0}}]}