{"type": "FeatureCollection", "features": [{"type": "Feature", "geometry": {"type": "Polygon", "coordinates": [[[4.774167172680317, 52.29056122051882], [4.774082953082845, 52.289664868857194], [4.773964834901668, 52.288432013420724], [4.773850765564263, 52.28718237114702], [4.7737618643114, 52.28625444668431], [4.773741931147925, 52.28604222833653], [4.774318073467822, 52.28574376137086], [4.773868540598942, 52.28521551105917], [4.773811096879222, 52.28523624479481], [4.7737154217599, 52.28526612757409], [4.773585518975117, 52.285291158924615], [4.773432883769728, 52.28530672468833], [4.773303303585774, 52.28530838880613], [4.773173884864744, 52.285298369321005], [4.773025641164829, 52.28527189388752], [4.772897196954266, 52.28524016433884], [4.772797964532891, 52.2852029420376], [4.772703193741165, 52.285167396618625], [4.772513295941047, 52.28508077256584], [4.772537907239719, 52.28476159553256], [4.772788044646394, 52.28462203693345], [4.7730844872546685, 52.28451250431657], [4.773243440799937, 52.28441707816639], [4.7734008242735655, 52.2843206819451], [4.773504864419877, 52.28425588880733], [4.773608192033235, 52.28419066944842], [4.773702526589689, 52.28413034669324], [4.773877190603793, 52.28401668382801], [4.774032807938857, 52.28391319512486], [4.774262301622482, 52.28375661108956], [4.774358427363526, 52.2836895471695], [4.774408848095246, 52.28365400062433], [4.774464098422971, 52.28362317977225], [4.774501060114971, 52.28358270995527], [4.774572991397425, 52.28352506565186], [4.77419938492374, 52.28324367658291], [4.773971709821548, 52.2831731091085], [4.773739749440207, 52.2827591262505], [4.773415290622828, 52.28261683511515], [4.77456409277565, 52.28199690141428], [4.774671544520054, 52.28193818279614], [4.774587403184953, 52.28190374549891], [4.774549915312441, 52.28193997032058], [4.774366800378208, 52.281860619575646], [4.774406512663504, 52.28182781276547], [4.774304587165829, 52.28178442997376], [4.774200199672065, 52.2817400007158], [4.774095826915564, 52.28169558042838], [4.77399155632189, 52.28165120551718], [4.77388537748851, 52.28160601169972], [4.773687574802718, 52.28152182008623], [4.773301120764334, 52.28135733919385], [4.773204456754873, 52.28131619379132], [4.77310789487638, 52.28127509377875], [4.773011216570117, 52.281233948141676], [4.7729146695769415, 52.28119285703414], [4.772788737780022, 52.28113925473224], [4.772564820053812, 52.281044832042646], [4.7724913626551615, 52.281012686771575], [4.772366036309276, 52.28096305982594], [4.772233218873359, 52.28091047270158], [4.772205512725727, 52.280899507108266], [4.771994466768261, 52.28080805338276], [4.771900218833713, 52.28076721607261], [4.771738615197184, 52.280698156476355], [4.7716634586944515, 52.280666037789146], [4.770515338433927, 52.28016146674932], [4.770111724037222, 52.279980761404275], [4.770030867591766, 52.27994455835198], [4.769926373047929, 52.279896844108315], [4.7693376053831384, 52.27962798620182], [4.769037704712061, 52.27949266893584], [4.768921539074287, 52.27955827558062], [4.768715794918604, 52.27967011481806], [4.768256380881843, 52.27991722453151], [4.768047618527454, 52.27977005941654], [4.767770001396606, 52.279646881487764], [4.767613090625479, 52.279577256559755], [4.7674842156964, 52.27952006490141], [4.767208407463595, 52.27939769504197], [4.767137322240246, 52.27936614305896], [4.766918022915564, 52.279268830660676], [4.766852210023577, 52.279239625055105], [4.766492058565628, 52.27943405817069], [4.76646731267414, 52.27944737419622], [4.766319279270752, 52.279345635300594], [4.766226108210501, 52.27928075633291], [4.766255189865807, 52.27926546780892], [4.766523464594033, 52.27912435487279], [4.7662337821276335, 52.27894027056871], [4.766007255027632, 52.278796325003995], [4.7657904463539875, 52.27865855086771], [4.7656274906985665, 52.278585745704696], [4.765611399103306, 52.2785785516337], [4.7655147124193, 52.27853472133262], [4.765457523939398, 52.278510314912445], [4.765448114007537, 52.278506292751615], [4.765537622766104, 52.278456718625954], [4.7655436184382856, 52.278453406641], [4.7653464746587515, 52.278317955097606], [4.765153599242719, 52.27818542878183], [4.765145464137605, 52.27818979006649], [4.764804075535331, 52.27795486391019], [4.7646819561649885, 52.27788463623731], [4.764574547789317, 52.277822871669564], [4.764504730325615, 52.27778272328799], [4.764696271301852, 52.27768073024295], [4.764628236029647, 52.277650397164244], [4.7644552795945625, 52.27757327738973], [4.763753223457582, 52.277346873610114], [4.763749945474887, 52.27734865391125], [4.7629527846436295, 52.2777824835568], [4.762919409623845, 52.277801927994965], [4.762711384780332, 52.27765949380709], [4.762590069072265, 52.27757616376979], [4.762372994724389, 52.27769295643499], [4.762297072988797, 52.27773380979394], [4.761688406637873, 52.27806465468228], [4.761506561405505, 52.27816326080906], [4.760428434982281, 52.27874705097758], [4.75977738717223, 52.27829766939694], [4.759557653722068, 52.27815269578283], [4.758598834173772, 52.277456436683906], [4.758542780073174, 52.27748479217389], [4.7575458670442945, 52.277989084987006], [4.757281278360071, 52.27812291701901], [4.75717053821016, 52.27818314831052], [4.757074449656736, 52.278235224638806], [4.757045257292184, 52.2782157718952], [4.757208211279557, 52.278125331875806], [4.756650784855636, 52.27773863721203], [4.756674820871942, 52.27772695525458], [4.756476617542705, 52.27758979332649], [4.757133442730982, 52.27723378704815], [4.7581782694368355, 52.276667663903865], [4.757796611652986, 52.27639804303445], [4.757732079409336, 52.27643328271001], [4.757140225383247, 52.27675534059252], [4.7560983052265335, 52.277323114931804], [4.755987460356108, 52.277383524322055], [4.755481351538348, 52.27703000291592], [4.755052205626334, 52.276730234401086], [4.754540711544546, 52.27637313880327], [4.7565585827956065, 52.27528417346498], [4.755734964136339, 52.275051077863544], [4.755314669138805, 52.274962718196846], [4.755303517786139, 52.27496380904211], [4.755276999972936, 52.27496256175973], [4.755256265981693, 52.27495849621086], [4.755242682728115, 52.27495440597365], [4.755214480079375, 52.274942840482424], [4.755149686175918, 52.274909930667086], [4.755087104839951, 52.274877023659826], [4.755000821865974, 52.27483958575514], [4.754767284147882, 52.27477320971921], [4.754676843965794, 52.274755082429685], [4.754466079664628, 52.274720420329416], [4.754443827579066, 52.27478492463123], [4.754404950279373, 52.27492109978276], [4.75416411727015, 52.27504805941563], [4.754154255479638, 52.27504090611359], [4.754147905010735, 52.27503618038894], [4.754207398688502, 52.27500395360523], [4.7539352290964825, 52.27481269706954], [4.75380678316562, 52.27472243485928], [4.753817863308971, 52.27465539013197], [4.75356961670783, 52.27463428613867], [4.75355468147055, 52.27470038441883], [4.753352636391991, 52.27480957441428], [4.752667318010896, 52.275179913431074], [4.752609703670575, 52.27514198952539], [4.7526381853010005, 52.27512679099576], [4.752697297534283, 52.27484423027632], [4.752743954193188, 52.27462841915428], [4.752763880782679, 52.27456378583472], [4.752556790611948, 52.274543907256586], [4.752005711098708, 52.27449311321321], [4.75199604403722, 52.27453285995389], [4.751986308861582, 52.274560966918365], [4.751756182117579, 52.27522291563717], [4.75151533722808, 52.275053968223006], [4.751221820008824, 52.27484806603711], [4.7511500840158565, 52.274797742934254], [4.751038643410216, 52.27471955913513], [4.750971259840643, 52.27467228828839], [4.750959132352878, 52.274663774327045], [4.750747190585834, 52.27451509593417], [4.750705152761719, 52.2744844273483], [4.749459111020646, 52.2751164136505], [4.748601341709134, 52.27558135870184], [4.748653699962162, 52.27561777316378], [4.749486685818871, 52.2761970321866], [4.749463795923561, 52.27620943791071], [4.74811462922856, 52.276940566146315], [4.747828918737952, 52.27674123204641], [4.747381977287019, 52.27642939416246], [4.74729526765076, 52.27636890318384], [4.747349622877838, 52.2763388540638], [4.7472637284068275, 52.276309286061895], [4.747001354551758, 52.276125104113014], [4.7455375388967544, 52.27690966269613], [4.74541872702183, 52.2770043709837], [4.745333055317475, 52.27706389147673], [4.743337282819832, 52.27813526921514], [4.742139362981601, 52.27877828941237], [4.74252750624998, 52.27905032430769], [4.7428045050507475, 52.27924652284168], [4.74297176135299, 52.27936499699825], [4.743347775486088, 52.27962832559264], [4.743786663461761, 52.2799319017236], [4.74408580620934, 52.280141915343805], [4.744820913700708, 52.28065411830552], [4.744696790133193, 52.28072113205773], [4.746591947540776, 52.281964438575734], [4.747545547725459, 52.282553819023576], [4.747810229478683, 52.28269546288459], [4.748103655994591, 52.28282557720376], [4.748390263223721, 52.2829357456267], [4.748670977866332, 52.28302671921128], [4.748979451771206, 52.283104333098294], [4.749408659301367, 52.283212329716875], [4.749840927180156, 52.28326955935908], [4.750259431577902, 52.283324978588276], [4.7506713183376705, 52.2833646677444], [4.751052156616207, 52.283378401975625], [4.75139522887885, 52.283368563215404], [4.751824611910641, 52.283318292210936], [4.752290751876336, 52.2832637230872], [4.752731334264952, 52.28319463425747], [4.753221927641919, 52.28311771385445], [4.753734198801683, 52.28303738430602], [4.754201113137334, 52.28299803739631], [4.7546157861169025, 52.28297688833278], [4.755006313637043, 52.28297897735261], [4.755405867929397, 52.283016166302], [4.755890733643443, 52.2830830203123], [4.756346859649727, 52.283161403293455], [4.756859309324555, 52.28329850644995], [4.757342772647089, 52.283464663746116], [4.757949899776873, 52.283673316181684], [4.7593286965580655, 52.284208580432654], [4.760524608525315, 52.28475841699951], [4.761641848947282, 52.285342536360275], [4.762741150408136, 52.285917256691015], [4.76348449297154, 52.28640970133684], [4.763768311373066, 52.28659861447757], [4.764140883005612, 52.286846577927044], [4.764443594710703, 52.28701696595739], [4.764756313428671, 52.28713545567005], [4.765078805230124, 52.28723646951469], [4.765462820512716, 52.28729601215254], [4.7655758862125, 52.2872746491417], [4.765860173705004, 52.28747190039717], [4.7659801890441775, 52.28755518395939], [4.766177544832618, 52.2876921270796], [4.766205705386274, 52.287711670920984], [4.766422833403247, 52.28786231619053], [4.766484903316645, 52.287905388611506], [4.767200981405692, 52.288402222963946], [4.770429381157234, 52.29064406570251], [4.772001994322123, 52.291733683504155], [4.774167172680317, 52.29056122051882]]]}, "properties": {"key": 1, "source_names": ["Schiphol-Rijk"], "ha": 178.3}}, {"type": "Feature", "geometry": {"type": "Polygon", "coordinates": [[[4.9645396072471835, 52.35746917827337], [4.966801938918896, 52.35691574756412], [4.96971141540679, 52.35636302122969], [4.969593771650743, 52.35610176568548], [4.9694027023082255, 52.35570842848855], [4.969365971407136, 52.35563412347139], [4.9693300169536565, 52.355641033896376], [4.969312794618758, 52.35561031610124], [4.969500510893286, 52.35557699627907], [4.969521405878853, 52.35549826600285], [4.969396782114098, 52.355423677757706], [4.969321444965416, 52.355382293140785], [4.969220367705915, 52.35532936726775], [4.969118608743078, 52.35528338637944], [4.968939684248485, 52.35518764654381], [4.968873128613169, 52.35515373447234], [4.968736077004341, 52.35508818814374], [4.968540790565199, 52.355015470222924], [4.968309045157246, 52.35492702931227], [4.968213829864958, 52.354900205578865], [4.968079397857938, 52.354862089184856], [4.967919711266055, 52.35481238792481], [4.967725033320513, 52.35473457478253], [4.967610039563757, 52.35469146667341], [4.967436390998517, 52.354628224739876], [4.96741744780313, 52.3546213269125], [4.967216686531135, 52.35454128037798], [4.967032328559116, 52.35446670232004], [4.966844850152521, 52.35439310153497], [4.9667233812130025, 52.3543534927318], [4.966608990999301, 52.35431350451206], [4.966522390544809, 52.354279322139995], [4.966428611302506, 52.35425456024339], [4.966355771450862, 52.354236676408995], [4.966280664794578, 52.354207091485], [4.9662512655505795, 52.35418994626872], [4.966238875160493, 52.35416385587811], [4.966157085922055, 52.35426309461235], [4.966056259754369, 52.354385408850256], [4.96585613639517, 52.35465124446453], [4.9658218704881145, 52.35469676195569], [4.964955748782268, 52.353275741285536], [4.964537534221139, 52.352773281745186], [4.963939647884737, 52.35205493553304], [4.962535033351756, 52.35036721829646], [4.96191499159085, 52.349564753984545], [4.961364989622977, 52.34885290971826], [4.961224752087845, 52.348715738131474], [4.961169340663015, 52.34866154059387], [4.961159017347423, 52.34865144619902], [4.960627054786591, 52.34813109264984], [4.960533987718369, 52.34804005331256], [4.960427587384542, 52.347935979193856], [4.955345814688257, 52.350071679995644], [4.949612230433079, 52.35248011320609], [4.948797483444145, 52.352831294538284], [4.947693316429422, 52.35330581269997], [4.9475766967571095, 52.35337432426778], [4.9418895128585705, 52.355741654180854], [4.939703262203064, 52.35665714719334], [4.938575410655088, 52.357103099336214], [4.9376383525036625, 52.35749404174528], [4.937141949157488, 52.35769016367023], [4.937426350108905, 52.35773911306989], [4.9377924638463675, 52.35778741033199], [4.940459567467168, 52.35838039399988], [4.940699723222646, 52.358403976084944], [4.940942444214864, 52.35841335779904], [4.941148137868198, 52.358410142541075], [4.9446763380660785, 52.35826290071039], [4.952935688868688, 52.35790716256695], [4.9564918713821005, 52.35778745234785], [4.957083306273919, 52.35776752911572], [4.958534318086415, 52.35779345534969], [4.958736309773227, 52.35782503240566], [4.958929845581419, 52.357873421447984], [4.95908160181256, 52.35794182744317], [4.959181833608299, 52.35801175460695], [4.959442926962711, 52.35823204288262], [4.961304927462946, 52.359130811793506], [4.962297516948063, 52.35838775420379], [4.9645396072471835, 52.35746917827337]]]}, "properties": {"key": 2, "source_names": ["Science Park-Noord", "Science Park-Zuid"], "ha": 126.7}}, {"type": "Feature", "geometry": {"type": "MultiPolygon", "coordinates": [[[[4.7412395, 52.2840217], [4.7411925, 52.2840473], [4.741268, 52.2840992], [4.7412967, 52.2841189], [4.7413223, 52.2841365], [4.7413469, 52.2841534], [4.742083, 52.2837525], [4.7425343, 52.2835067], [4.7441608, 52.2826209], [4.7441699, 52.2826159], [4.7436304, 52.282409], [4.7435297, 52.2823704], [4.7422857, 52.2818931], [4.7399743, 52.2831523], [4.7412395, 52.2840217]]], [[[4.7422394, 52.2847531], [4.7422792, 52.2847314], [4.7427972, 52.2850873], [4.7434415, 52.2855299], [4.7453845, 52.2844616], [4.7457585, 52.284256], [4.7455641, 52.2841163], [4.7452592, 52.2839008], [4.74518, 52.2838448], [4.7452238, 52.2838212], [4.7451624, 52.2837782], [4.7450838, 52.2837231], [4.7450576, 52.2837366], [4.7450514, 52.2837324], [4.7450415, 52.2837257], [4.7450054, 52.2837445], [4.745021, 52.2837558], [4.7449815, 52.2837775], [4.7448754, 52.2838344], [4.7448146, 52.2837914], [4.7447754, 52.2837637], [4.744693, 52.2838064], [4.7446601, 52.2838171], [4.7446246, 52.283822], [4.7441351, 52.2834793], [4.7432455, 52.2839638], [4.742315, 52.2844708], [4.7420436, 52.2846186], [4.7422394, 52.2847531]]]]}, "properties": {"key": "NTT, EdgeConneX", "source_names": ["NTT Amsterdam 1 Data Center", "EdgeConneX AMS06"], "ha": 6.2}}]}