{"type": "FeatureCollection", "features": [{"type": "Feature", "geometry": {"type": "Polygon", "coordinates": [[[4.38434918464437, 51.9846090071523], [4.38241505361544, 51.9841168471485], [4.38227600723256, 51.9843059222334], [4.38154884103385, 51.9840975547897], [4.38137021359264, 51.9843338564071], [4.38121643963991, 51.9843206494849], [4.38109690920886, 51.9844979988456], [4.37887244416162, 51.9839523606652], [4.37739357238165, 51.9862202358642], [4.37722769593909, 51.9864619496287], [4.37534379610155, 51.9891563126483], [4.37517342873284, 51.9895960977624], [4.37447840557528, 51.9906617335822], [4.37536251936536, 51.9909124773479], [4.37597421476242, 51.9909537538511], [4.37632240106687, 51.9910377975555], [4.3794107302825, 51.9918657468182], [4.38094713938014, 51.9923021322453], [4.38328188230023, 51.9929164214567], [4.38352780171131, 51.993008568943], [4.38346006951402, 51.9932087556035], [4.38278943709897, 51.9942850846348], [4.38301789324358, 51.9943491198436], [4.38473392291972, 51.9947096576416], [4.38564970773238, 51.9948770964024], [4.38627919071113, 51.9949977604283], [4.38689531173139, 51.995073947879], [4.3873829309125, 51.995113570644], [4.38748249828138, 51.995158767176], [4.38756868504089, 51.9951594993589], [4.38775602100269, 51.9951344748672], [4.3879160038476, 51.9950855773329], [4.38810158031835, 51.9949408249096], [4.38825168969979, 51.994750737379], [4.38879618068702, 51.994046207388], [4.38930395114615, 51.9933526084972], [4.38988986695786, 51.9924233011284], [4.39034491096202, 51.9916392014591], [4.39040224494374, 51.9915237661913], [4.38561093271039, 51.9902027729228], [4.38724201638242, 51.9878859309314], [4.38561475504147, 51.9874439986423], [4.38640795971924, 51.9864221417984], [4.38359221546649, 51.9857322365433], [4.38434918464437, 51.9846090071523]]]}, "properties": {"key": 1, "source_names": ["TU CAMPUS ZUID"], "ha": 71.1}}, {"type": "Feature", "geometry": {"type": "Polygon", "coordinates": [[[4.371972561664241, 52.00273958380481], [4.372212902568729, 52.00279581420922], [4.372384084126124, 52.0025655779766], [4.376080659562739, 52.0035496387164], [4.376589509748442, 52.00281853719917], [4.377531211862972, 52.00146892557115], [4.378310071474889, 52.000352248559345], [4.379085167060796, 51.99922896348301], [4.379735528339231, 51.99830382579861], [4.380205408912944, 51.99760496148713], [4.3802675738754004, 51.99751991761471], [4.380579705299397, 51.99709290041086], [4.380963363782747, 51.996522104690705], [4.381073334863075, 51.996292339148546], [4.381277091679371, 51.9959544403185], [4.381687958338385, 51.99536812655552], [4.3821238903989315, 51.99471423216653], [4.378937164042902, 51.99393348551773], [4.378076902251707, 51.993732223404514], [4.376090282461453, 51.993247888135045], [4.373120121962277, 51.9925247001771], [4.372776601259716, 51.992439536715644], [4.372700355160328, 51.99255185951189], [4.371943640082388, 51.99369183558388], [4.370716498465095, 51.99559623213794], [4.370307656293686, 51.99622089962744], [4.370013971289556, 51.996739783307916], [4.369299808614505, 51.99803963472098], [4.368768822160674, 51.99898602795091], [4.368470517473786, 51.99952969595115], [4.368244377696546, 51.99991011316541], [4.367876638612926, 52.00049539005065], [4.367705484846437, 52.00075959875748], [4.367620094906733, 52.00097239717253], [4.366929036586467, 52.001923365975564], [4.36686552712826, 52.00199122113423], [4.366700945593185, 52.00216708765847], [4.371409854420289, 52.00353356322441], [4.371972561664241, 52.00273958380481]]]}, "properties": {"key": 2, "source_names": ["TU-Campus"], "ha": 75.7}}, {"type": "Feature", "geometry": {"type": "Polygon", "coordinates": [[[4.37175413254323, 51.990559870696465], [4.373164225147857, 51.98905435413287], [4.37433621150125, 51.987565180677635], [4.375422896359355, 51.986159731147005], [4.376760495722657, 51.98431838934633], [4.378677600649172, 51.98174438363612], [4.370282307948032, 51.98036953035986], [4.370209103283124, 51.98049724840759], [4.370038368920951, 51.98081443375206], [4.369985700581591, 51.98091019431698], [4.369832626141929, 51.981192529738], [4.369645167494834, 51.981545992453455], [4.3694737789189695, 51.98186913989428], [4.369236735992485, 51.98229881140006], [4.369153810995001, 51.982437761579995], [4.368980176394938, 51.98276854732902], [4.368569877064908, 51.983541734418544], [4.368377998323789, 51.983901197358165], [4.368312367817458, 51.98402695737127], [4.368108873358026, 51.984406615961504], [4.367630972841255, 51.98530577636133], [4.367153999678319, 51.98621439910904], [4.366746598526509, 51.98694899948462], [4.3662485105329525, 51.98785102909428], [4.365772174612849, 51.98871258011133], [4.365617776602103, 51.98899369500284], [4.365602051611231, 51.98902626874629], [4.3657406307209925, 51.98905051020234], [4.3655820013759445, 51.98935567831798], [4.365226039082398, 51.990013695979485], [4.364944462142876, 51.99053262784131], [4.365663200185414, 51.99070892018797], [4.367576685516245, 51.99117380654797], [4.3708099253593256, 51.99195847418767], [4.37175413254323, 51.990559870696465]]]}, "properties": {"key": 3, "source_names": ["Bedrijventerrein Schieweg-Zuid"], "ha": 63.4}}]}