{"type": "FeatureCollection", "features": [{"type": "Feature", "geometry": {"type": "MultiPolygon", "coordinates": [[[[5.39087876223411, 51.3972229896323], [5.39147204472093, 51.3976072445651], [5.39198892202574, 51.3978695680222], [5.39203546695935, 51.397892837786], [5.39220317482266, 51.3979176752127], [5.39231937822336, 51.3980266940056], [5.39287351323284, 51.3983072049806], [5.39511137896467, 51.3991278926317], [5.39767420951747, 51.4000396265323], [5.39782760256477, 51.400069454892], [5.39789337135586, 51.3999959840634], [5.39795003633493, 51.3997103446147], [5.39794405218462, 51.399684071186], [5.3979050792246, 51.3996164258287], [5.39788988524352, 51.3995347019239], [5.39816801696173, 51.3993072613275], [5.39828332146956, 51.3990184340712], [5.39826265684748, 51.3990146068791], [5.39834678273376, 51.3988620333819], [5.39838942383447, 51.3987132211613], [5.39832001500034, 51.3986991695801], [5.39848847979659, 51.3981624553057], [5.39855587604427, 51.3981761294601], [5.39862924465333, 51.3979414090074], [5.39875317802774, 51.3976499826435], [5.39730268406422, 51.39739960453], [5.39592305476566, 51.397194775727], [5.3945291914884, 51.3970375716779], [5.39405992029678, 51.3970071023522], [5.39376584292888, 51.3970120815566], [5.39369256803004, 51.3970641843394], [5.39356262619976, 51.3970511221444], [5.39354547103089, 51.3970621342764], [5.392746080428, 51.3970008015156], [5.39178989147806, 51.3970298063375], [5.39120309859172, 51.3970134695235], [5.39087876223411, 51.3972229896323]]], [[[5.40878830746367, 51.4039988260781], [5.40880932836077, 51.4039595055485], [5.40887630497522, 51.4039726974045], [5.40923524087336, 51.4040275864246], [5.41075052785127, 51.4045861063026], [5.41097050386833, 51.4046244160719], [5.41184921093441, 51.4049484725973], [5.41212890007027, 51.4050585602166], [5.41269685803727, 51.4052966999674], [5.4131605690975, 51.4055101504435], [5.41366512234181, 51.4057608838673], [5.41400384371803, 51.4059396181688], [5.4140372799361, 51.4059516193254], [5.41408688235099, 51.4059598055058], [5.41413814626136, 51.4059584362858], [5.41569782887846, 51.406227301322], [5.41928842947943, 51.4033460852063], [5.41811882775412, 51.4029973356577], [5.41688030759942, 51.4026280168807], [5.41640954381354, 51.4024911935577], [5.41455876852722, 51.401995792808], [5.41230710233546, 51.4014084330302], [5.41183041288479, 51.4012660915142], [5.41073761762781, 51.4009737996892], [5.4105139102272, 51.400910330827], [5.408715773676251, 51.40039780024147], [5.408367586228362, 51.400297277192934], [5.407253051720527, 51.399962207473834], [5.40657815568969, 51.3997575195965], [5.40579890573291, 51.3995250381586], [5.40534502151981, 51.3993904416942], [5.40502482371688, 51.3992956787864], [5.40333086043313, 51.3987996170712], [5.40325561323875, 51.3987782794141], [5.4025912090448, 51.3985853377247], [5.40217143175561, 51.3984613939205], [5.40216104154351, 51.3984583301236], [5.40155871262956, 51.3992292515783], [5.40105233195521, 51.3998773545729], [5.401039547648, 51.3998937335375], [5.40103339968248, 51.3999015993965], [5.40047468627456, 51.3997312215103], [5.4003620737616, 51.3996988212067], [5.40036313666797, 51.3996972031176], [5.40040430271575, 51.3996346369907], [5.40039964678978, 51.3996344128087], [5.40040114070754, 51.3996325070311], [5.39997092619156, 51.3996067491546], [5.39969649909323, 51.3995903839895], [5.39953203263047, 51.3995805861302], [5.39948968380262, 51.3995780648479], [5.39943942972885, 51.3995689017398], [5.39943113788121, 51.3995673925214], [5.39943066364982, 51.399567302685], [5.39942110718744, 51.3995655598944], [5.3990862147281, 51.3995045258177], [5.39890646310692, 51.3994542794638], [5.39887733960551, 51.3995819490354], [5.39888793286902, 51.3995921411491], [5.39889829503227, 51.399597749045], [5.39891010887461, 51.3996045702672], [5.39892157790054, 51.3996116162411], [5.39893267336787, 51.399618877981], [5.39894340964883, 51.3996263644743], [5.39895375799662, 51.3996340487579], [5.39896371841341, 51.3996419398207], [5.39897327652455, 51.3996500196867], [5.3989824323276, 51.3996582793675], [5.39899115708261, 51.399666718866], [5.39899945078703, 51.3996753291935], [5.39900732780601, 51.3996840923715], [5.3990147450295, 51.3996930084042], [5.39902170249731, 51.3997022301], [5.39902815705471, 51.3997115866777], [5.39903409432911, 51.3997210691505], [5.39903952869263, 51.3997306865054], [5.39904444576555, 51.3997404027893], [5.39904883117761, 51.3997502180036], [5.39905269929373, 51.3997601141697], [5.39905602137375, 51.3997700912904], [5.39905881178246, 51.3997801313869], [5.39906105614726, 51.3997902254722], [5.39906276883544, 51.3998003645559], [5.39906392110186, 51.3998105306637], [5.39906454168387, 51.3998207148039], [5.39906460183867, 51.3998309079908], [5.39906413030125, 51.3998410922441], [5.39906309833126, 51.3998512675665], [5.39905816310182, 51.3998819645096], [5.39905743142878, 51.3998865308482], [5.39905672844854, 51.3998909174096], [5.39903324301323, 51.4000371660895], [5.39903123784518, 51.4000625414145], [5.39902482505591, 51.4001031890063], [5.39902504160631, 51.4001070091842], [5.39902574673248, 51.4001108023455], [5.39902692605749, 51.4001145415257], [5.39902857957899, 51.400118217736], [5.39903070728773, 51.4001217950215], [5.39903328044135, 51.4001252643966], [5.39903629902808, 51.4001285809175], [5.39903971993771, 51.4001317445889], [5.39904607296812, 51.4001372809756], [5.39905287141638, 51.400142601587], [5.39905636399245, 51.4001450551426], [5.39906011527781, 51.4001476884455], [5.3990664104291, 51.4001516877683], [5.39909303856434, 51.4001530063487], [5.39908982419417, 51.400170238032], [5.39910603420858, 51.4001722857747], [5.39939190841416, 51.4002084532534], [5.39937297304222, 51.4002783244777], [5.39951160836908, 51.4003026510946], [5.39950705586626, 51.4003130605048], [5.39986735946905, 51.4003670973239], [5.39977937470394, 51.4005874112034], [5.39978063934002, 51.4005876088161], [5.39970621032523, 51.4007754539437], [5.39970203148516, 51.40078600714], [5.39996115500436, 51.4008815824762], [5.40024226860364, 51.400985271541], [5.40040671202856, 51.4010459264993], [5.40059301566293, 51.4011146505354], [5.40128875317349, 51.4013733701118], [5.40139819301712, 51.4014007272495], [5.40141953410117, 51.401403583019], [5.40187388233409, 51.4015693135998], [5.40187859128817, 51.4015551647757], [5.40222624179372, 51.401679928049], [5.40222092997797, 51.4016959106618], [5.4023945910596, 51.4017592582255], [5.40247128990749, 51.4017678772256], [5.40262491762934, 51.4017851420098], [5.40258509028377, 51.4018087157295], [5.40256444383987, 51.40182093414], [5.40336888819456, 51.4021177028993], [5.40355831953825, 51.4021875813037], [5.40467824720516, 51.4026007085129], [5.40666908656959, 51.4033350634487], [5.40704427218705, 51.4034645537521], [5.40708253767028, 51.4034862099466], [5.40859989168891, 51.4040434271514], [5.40878830746367, 51.4039988260781]]], [[[5.4139913881786, 51.4110727082078], [5.41454922079947, 51.411183929673], [5.41430368342593, 51.4114606595701], [5.41466473155895, 51.4116203575183], [5.41455535571019, 51.4117297039688], [5.41496975204696, 51.4119194825046], [5.41497616120507, 51.4119640289509], [5.41562474387505, 51.4122506109119], [5.41568654574027, 51.4121950545565], [5.4161531079609, 51.4124429189712], [5.41594765521367, 51.4126620606841], [5.41603523186317, 51.4127230811425], [5.415972889463, 51.4127880849359], [5.41625803958197, 51.4128956533577], [5.41653124588482, 51.4128910362209], [5.41705503368602, 51.4128821833846], [5.41752238935972, 51.4130689460099], [5.41730010981961, 51.4132908989378], [5.41786794156484, 51.4135119528679], [5.41787674795461, 51.4135044180091], [5.41793155812856, 51.4135269651137], [5.41811909819529, 51.4134817829788], [5.41840166227615, 51.4135563403885], [5.41912635878545, 51.4135759181449], [5.41912882364857, 51.4135446907345], [5.4191625911321, 51.4131177812618], [5.41912993049181, 51.4135447173956], [5.41971537981923, 51.4135601320485], [5.41974214385199, 51.4137598264042], [5.42013280536792, 51.4137710238525], [5.42002719982158, 51.413974944403], [5.4201687545443, 51.4140075152192], [5.42020692307303, 51.4139340756988], [5.42083419059897, 51.4141017503171], [5.42069600180798, 51.4142491869629], [5.4206068476265, 51.4144016609711], [5.42055812803091, 51.4144157872529], [5.42075135785556, 51.4144631918048], [5.42089468702304, 51.4142879605535], [5.42099700472706, 51.4143259439663], [5.42100963009102, 51.4143126100492], [5.42121919744315, 51.4143898874856], [5.42140635130001, 51.4141937889634], [5.42159341480666, 51.4142607892967], [5.42162257166479, 51.4142296797565], [5.42173486859842, 51.4142713539128], [5.42178901723124, 51.4142140797797], [5.4225753669284, 51.4144782000981], [5.42289474663426, 51.414593265402], [5.42307345269975, 51.4146663602655], [5.42299474523139, 51.4147501592276], [5.42332057491146, 51.4148741920893], [5.42347500923894, 51.4149361389213], [5.42289966535878, 51.4134782700922], [5.42287964606255, 51.4134652066886], [5.42273548275868, 51.4130926964555], [5.42243367852359, 51.4129581738236], [5.4222952182929, 51.4129100813391], [5.42165058651862, 51.4124044267497], [5.42112381767234, 51.4119920368274], [5.4212906348207, 51.411945875884], [5.42041827790935, 51.4112643364102], [5.42021371568248, 51.4110507065348], [5.42012147016597, 51.4109369358541], [5.42001464849682, 51.410780643697], [5.41993789351248, 51.4106398214912], [5.41980632500547, 51.4103067913564], [5.41974248995948, 51.4101817675142], [5.41967740126815, 51.410092105526], [5.41959828778939, 51.4100069777254], [5.41946291173122, 51.4098928680024], [5.41932915402835, 51.4097899306248], [5.41919971985935, 51.4097026322347], [5.41896734964317, 51.4095793442423], [5.41767679038045, 51.4088505185637], [5.41722601900078, 51.4085961841476], [5.41187493251438, 51.4055764629572], [5.40997270137228, 51.4048780445698], [5.40920490614143, 51.4046269411002], [5.40910808039908, 51.4046170090112], [5.4089827433461, 51.4046406370594], [5.40881849095015, 51.4047306987959], [5.40871675091624, 51.4048439485167], [5.40851619361007, 51.4051767835306], [5.40821744651373, 51.4057296076947], [5.40830919448604, 51.4057869928222], [5.4082430414673, 51.4057886857876], [5.40801136628931, 51.4059759984604], [5.40775886963391, 51.4061117281938], [5.4072400127447, 51.4063403032879], [5.40714905571655, 51.4063813884302], [5.40706281925266, 51.4064377444976], [5.40702714685879, 51.4064686088512], [5.40701117833677, 51.4064989394805], [5.40703119686473, 51.4065276729305], [5.40739007712995, 51.4067731371822], [5.40750650261388, 51.4068292692007], [5.40759135750817, 51.406864328171], [5.40773753236255, 51.4066945775564], [5.408127017934, 51.4063823748564], [5.40928624642409, 51.4068072077808], [5.40910901376361, 51.4069971099352], [5.40934428858478, 51.40708701502], [5.40933423096614, 51.4070931472441], [5.40981270192014, 51.4073581583992], [5.40984598268542, 51.407548712344], [5.41029561986127, 51.4079074701851], [5.41006563506652, 51.4080029759206], [5.41021614658417, 51.4082053985058], [5.41070782350128, 51.4079327441754], [5.41256105104145, 51.410073999819], [5.41303637549646, 51.4106588521105], [5.41337602587145, 51.4104949477255], [5.4139913881786, 51.4110727082078]], [[5.42011830389545, 51.4128199519722], [5.42010351326376, 51.4126612966843], [5.42012008603855, 51.4128196098957], [5.41950895628708, 51.4129818929892], [5.419489441384724, 51.41298286333321], [5.42011830389545, 51.4128199519722]]], [[[5.42519239648127, 51.4138542760844], [5.42516933462744, 51.413951415479], [5.42457525222024, 51.4138818021282], [5.4243419149656, 51.4138328886809], [5.42419954023569, 51.4137848176927], [5.42407884141444, 51.413735517178], [5.42392190084958, 51.4136632259447], [5.42367814647066, 51.4135456228519], [5.42399360659981, 51.4143647889093], [5.42416487184762, 51.4147973783494], [5.42439884838273, 51.415253461858], [5.42472604727198, 51.4158962908171], [5.42488860708738, 51.4159561118029], [5.42493276014588, 51.415982074771], [5.42512485201316, 51.4160305510807], [5.42539975053782, 51.4160854717019], [5.425672502258667, 51.41611772625321], [5.42563120059981, 51.4162852318601], [5.42561617832013, 51.416387447238], [5.42585163664828, 51.416496554681], [5.42612078058755, 51.4165924729347], [5.42641268579456, 51.4166428371826], [5.42675489674681, 51.4166832870171], [5.42756826206563, 51.4167093168754], [5.42771892103847, 51.4166829544839], [5.42773752605628, 51.4166381663314], [5.42785902819499, 51.4160112165873], [5.4279175031967, 51.4158950891694], [5.42797739549865, 51.4158049385406], [5.42828930437559, 51.4154052721057], [5.42833612287537, 51.4153249774918], [5.42838245853173, 51.4152196045718], [5.42842081198317, 51.4151098659618], [5.42844536044833, 51.4150581003374], [5.42849581202376, 51.415037767951], [5.42851407125008, 51.4149620856319], [5.42849430785545, 51.4148215813841], [5.42852266451029, 51.4147054912865], [5.42861918701089, 51.4143063408472], [5.42878129075291, 51.4134264693875], [5.42882721500037, 51.4131416011615], [5.4287400940459065, 51.41312683513947], [5.42879353937879, 51.4127988742549], [5.42897255641142, 51.411954708487], [5.42914013217095, 51.4112270939824], [5.42919863388792, 51.4108542306774], [5.42930583606201, 51.4107348489218], [5.42936357780396, 51.4105989548236], [5.42933400112198, 51.4103234440134], [5.42927075891367, 51.4102305867354], [5.42939927951677, 51.4090302972832], [5.42937126692363, 51.4085804231224], [5.42925135972831, 51.4082277500868], [5.42873994255751, 51.4074302770497], [5.42857681163438, 51.4071889796273], [5.42819651818316, 51.4066774505701], [5.42697237128425, 51.4060080921456], [5.42699318324832, 51.4059932087092], [5.4252100013721, 51.4050200421093], [5.42544734573003, 51.4048107071124], [5.42503379872032, 51.4047191129427], [5.42393011318739, 51.4056533578914], [5.4230092062371, 51.406344733263], [5.42277498701807, 51.4066233562472], [5.42231802555745, 51.4069786481381], [5.4218902632981, 51.4072984151403], [5.42141393503946, 51.4075098810171], [5.42097969244067, 51.4077315527993], [5.41956655554159, 51.4081925907852], [5.41876283454901, 51.4085421312374], [5.41876532322717, 51.4085660225218], [5.41998817861284, 51.4093519335632], [5.42016336851848, 51.4092288555665], [5.42080948579564, 51.4096493681243], [5.42148243993926, 51.4101521606865], [5.42138048208096, 51.4102177992921], [5.42202765183428, 51.4106658641029], [5.42192967314618, 51.4107289941451], [5.42262566603758, 51.4112849952423], [5.42243891566125, 51.4114044759702], [5.42256260072685, 51.411552068686], [5.4231426425364, 51.4119041933714], [5.4232992713716, 51.4126621705175], [5.42355831001587, 51.413224692115], [5.42456662464292, 51.4137031096317], [5.425227618594659, 51.41377539674968], [5.42519239648127, 51.4138542760844]], [[5.42673997029949, 51.4141266559658], [5.426740283158299, 51.41412670587877], [5.42516933462744, 51.413951415479], [5.42673997029949, 51.4141266559658]], [[5.42733036774022, 51.4135144130622], [5.42758509338688, 51.413690413271], [5.427328327016772, 51.41351329483315], [5.42733036774022, 51.4135144130622]], [[5.427074213370049, 51.41420971016326], [5.42707468228499, 51.4142098666704], [5.42715118165031, 51.4142403120431], [5.427074213370049, 51.41420971016326]], [[5.42734196572976, 51.4152566878688], [5.42731214054085, 51.4151781729408], [5.42727698127463, 51.4150820599819], [5.42734326184683, 51.415259384029], [5.42753985865952, 51.4156878069498], [5.42734196572976, 51.4152566878688]]], [[[5.42234044253288, 51.4186562966361], [5.42217320129085, 51.4190238138559], [5.42195783040461, 51.4195670651728], [5.42237021343155, 51.4196609624763], [5.42257743555316, 51.4197383819234], [5.4230633745818, 51.419946949976], [5.4232140859401, 51.4200065881513], [5.42347234964461, 51.4200869564024], [5.42388770580964, 51.4201676789667], [5.42423038711701, 51.4202265807686], [5.42422191909304, 51.4202439316425], [5.42503316733455, 51.4203988146464], [5.42521594758072, 51.4203955818973], [5.42627494740756, 51.4205772420794], [5.42645750989934, 51.4201531930079], [5.426203389851, 51.4198647327928], [5.42603192248256, 51.4196949669951], [5.42586327319578, 51.4194901710826], [5.42577863617767, 51.4193152164378], [5.42573343647554, 51.4190246630835], [5.42579428783063, 51.418749732781], [5.42602590401628, 51.4180794947662], [5.42599197092112, 51.4180721353884], [5.42632554551385, 51.417467623885], [5.42613212667514, 51.4172204100618], [5.42491717863804, 51.4169571730196], [5.42432573004356, 51.4170801493136], [5.42405950171453, 51.4169086401263], [5.42352319401283, 51.4167766755866], [5.42318863869153, 51.4173083351209], [5.42260315292793, 51.4182356448747], [5.42234044253288, 51.4186562966361]]]]}, "properties": {"key": 1, "source_names": ["DE RUN 1000", "DE RUN 2000", "DE RUN 3000", "DE RUN 4000", "DE RUN 5000", "DE RUN 6000-7000", "DE RUN 7000", "DE RUN 8000", "UITBREIDING DE RUN 2000"], "ha": 157.3}}, {"type": "Feature", "geometry": {"type": "Polygon", "coordinates": [[[5.46402981232288, 51.4149330124519], [5.46400182165632, 51.4148545416369], [5.46399009912633, 51.4147394760886], [5.46351931661571, 51.412777364627], [5.46349441557019, 51.4126799255048], [5.46337261603657, 51.4122023998738], [5.46330508128095, 51.4119406842133], [5.46328585341062, 51.4118658299281], [5.46327021404849, 51.4118051934126], [5.46267862742368, 51.409868352501], [5.46260109103212, 51.4095773217558], [5.46204641409813, 51.4076586915697], [5.46202007496903, 51.4069712076461], [5.46199588299511, 51.4067592426115], [5.46197684600342, 51.4065443259616], [5.46196121635734, 51.4061900103008], [5.46180594414826, 51.4061044026892], [5.46092867200378, 51.4060753172301], [5.46019793550001, 51.4060357603483], [5.45964150298977, 51.4060047735614], [5.45914473204059, 51.4059845966008], [5.45872302547791, 51.4059730005498], [5.45841739449967, 51.4059568825587], [5.45814492960006, 51.4059377862603], [5.4577753295147, 51.4059217055808], [5.45737967735389, 51.40590823718], [5.45674714008283, 51.4058997272512], [5.45616908930552, 51.4058926557443], [5.45556023074528, 51.4058796759259], [5.45473312861562, 51.4058723838529], [5.45460555307105, 51.4058849431625], [5.45448102087964, 51.4058951814868], [5.45430641177912, 51.4059020598395], [5.45399234789803, 51.4059064742934], [5.45314591639725, 51.4058999640753], [5.45257733516064, 51.405891395243], [5.4522835620925, 51.4058841533162], [5.45190748456868, 51.4058895496422], [5.45150475404595, 51.4058897730136], [5.45122048747461, 51.4058973365332], [5.45100964917109, 51.4059063512196], [5.45090306281356, 51.4059138163423], [5.45079884792888, 51.405931662022], [5.45069464742154, 51.4059598715746], [5.45060466687659, 51.4059925316787], [5.45053602246996, 51.4060311036503], [5.45046028234952, 51.4060830186757], [5.45039640513749, 51.4061393676248], [5.45034672117947, 51.406191268414], [5.45030178605477, 51.4062476160128], [5.45026395060835, 51.4062935777933], [5.45020720550932, 51.4063736439553], [5.44991393120075, 51.4065113026542], [5.44934287926302, 51.4068455484627], [5.44927532785999, 51.4069390220936], [5.44918316814758, 51.4070938656811], [5.44904793077483, 51.4072676263619], [5.44894099984475, 51.4074050215509], [5.4487410808215, 51.4076507257272], [5.44872555613882, 51.4077021762617], [5.44872206531148, 51.4077566496201], [5.44873207209885, 51.4078124551536], [5.44875619192393, 51.4078676329966], [5.4487940483065, 51.4079200799845], [5.44884427330087, 51.4079678822361], [5.44890459395332, 51.4080094858968], [5.44897223496327, 51.4080438677135], [5.44904420624875, 51.4080706157835], [5.44911770527763, 51.408089848444], [5.4493263385556, 51.4081531434552], [5.45098025878319, 51.4086563793025], [5.45109341699282, 51.4086980607046], [5.45105228404619, 51.4087508469498], [5.45101769645415, 51.408797508286], [5.4510033677394, 51.4088187744174], [5.45097858706819, 51.4088688011229], [5.45094266607789, 51.4089179260707], [5.45090615553912, 51.4089566424184], [5.45085282609112, 51.4090244194312], [5.45082264544806, 51.4090571098607], [5.45070579876992, 51.4092156624356], [5.45066905896562, 51.4092655158294], [5.45064550300277, 51.40929749249], [5.45063399870409, 51.4093242401398], [5.45063180825463, 51.4093510815849], [5.45064034452204, 51.409381099178], [5.45064949785298, 51.4094104063267], [5.45065161962696, 51.4094374611481], [5.45064998323315, 51.4094699561816], [5.45063947899703, 51.4095027077359], [5.45060621359022, 51.4095809634971], [5.45058354995785, 51.409634611407], [5.45055972696782, 51.409671127487], [5.45051623304866, 51.4097326158846], [5.45047143648867, 51.4097876690673], [5.45043017265721, 51.409830226023], [5.45038472813052, 51.4098742144382], [5.45033793227234, 51.4099180867161], [5.45029292826392, 51.4099689332319], [5.45021349560547, 51.4100788001957], [5.45016339277348, 51.4101533346397], [5.45012263237595, 51.4102174191419], [5.45008525835376, 51.4102670210081], [5.4499336158382, 51.4104416633947], [5.44988131268869, 51.410505511342], [5.44983018156049, 51.4105751203891], [5.44964829112451, 51.4108096793594], [5.44960494705601, 51.4108878143976], [5.44956521669127, 51.4109493992914], [5.44956003747868, 51.4109564402179], [5.44952518892351, 51.4110037933757], [5.4494443273881, 51.4111014719075], [5.44938655104088, 51.4111791921225], [5.44935244820596, 51.4112255470849], [5.44929633767394, 51.4113023764837], [5.44924729198999, 51.4113636516411], [5.44915964700139, 51.4114629245936], [5.44907571234649, 51.4115638853805], [5.44902975307419, 51.4116120892395], [5.44898614380704, 51.4116655861737], [5.4489334439868, 51.4117569213404], [5.44882706612466, 51.411896967723], [5.44880905232246, 51.4119263523279], [5.4487452808532, 51.4121217823747], [5.44865954681493, 51.4123289093008], [5.44893927626776, 51.4125922287682], [5.44950095290042, 51.4126733308008], [5.45003727274749, 51.4128355668722], [5.45008943259652, 51.4128952056406], [5.45092860611629, 51.4130359432925], [5.45250926793412, 51.4132882421075], [5.45545951267882, 51.4137931062468], [5.45655428296199, 51.4139807808891], [5.45968436525107, 51.4145260777366], [5.46122212024015, 51.414797305313], [5.46239749911608, 51.4150135567649], [5.46261205974989, 51.4150494356164], [5.46274298196364, 51.4150557776143], [5.46365928038079, 51.4149717101376], [5.46402981232288, 51.4149330124519]]]}, "properties": {"key": 2, "source_names": ["HIGH TECH CAMPUS EINDHOVEN"], "ha": 81.7}}, {"type": "Feature", "geometry": {"type": "Polygon", "coordinates": [[[5.43790558220825, 51.4255236514658], [5.43789970684926, 51.4254248594254], [5.43776937475314, 51.4253778065385], [5.4364796118264, 51.4249731419498], [5.43584697969395, 51.4247688980654], [5.43512754678453, 51.4245301251028], [5.4351631575115, 51.4244860928267], [5.43374189712024, 51.4240629534184], [5.43344381737721, 51.4239760170433], [5.43218031182994, 51.4235984131795], [5.43196344060622, 51.4233779056281], [5.43228187063372, 51.4230125001771], [5.43248589124188, 51.4227726026194], [5.43274574977789, 51.4225030021694], [5.43307179061219, 51.4221837484886], [5.43316996900061, 51.4220955036865], [5.43322140218618, 51.4220164278146], [5.43323617148658, 51.4219635055592], [5.43333931243592, 51.4210257108039], [5.4331976813108, 51.4210196187104], [5.43320202630225, 51.4209800487853], [5.43331996410519, 51.4200472548318], [5.43344027988238, 51.4190683298111], [5.433447353531, 51.4190122106098], [5.43347280428822, 51.4188613433066], [5.43349880590158, 51.4188284613108], [5.43371998242322, 51.4188722197782], [5.43380818598107, 51.4188646159485], [5.43413054212684, 51.4186294499326], [5.43421259883916, 51.4185585049874], [5.43382090234321, 51.4183659992677], [5.43366829794875, 51.4182909958631], [5.43311169415241, 51.4180198576235], [5.43283664676028, 51.4178945737875], [5.43266880365262, 51.4178302895952], [5.4326128772121, 51.4178108599543], [5.43239736829666, 51.4177499108275], [5.43218462375191, 51.4177072612035], [5.43199018350492, 51.4176830219579], [5.43179668833751, 51.4176694785659], [5.43152331341539, 51.4176616911664], [5.43145679282914, 51.4176570873636], [5.43141261866327, 51.4183861947878], [5.43125630627486, 51.4183825778272], [5.43109380421605, 51.4196106920617], [5.43083681756054, 51.4197945896376], [5.43066111440439, 51.420010276205], [5.43026922074104, 51.4200173255563], [5.42962319407408, 51.4198837308354], [5.42961731048744, 51.4199261775736], [5.42957554545699, 51.4203422073135], [5.42953914393024, 51.4208221176801], [5.42953293181729, 51.4208670813642], [5.42946111732391, 51.4208637457605], [5.42936518949324, 51.4216340842428], [5.42926661522979, 51.422406805573], [5.42909083381355, 51.4228067938179], [5.42904876579595, 51.4233708041628], [5.42902372814646, 51.4237400234983], [5.42895086396368, 51.4239142324999], [5.42892612008293, 51.4240085327198], [5.42888252585292, 51.4242433597997], [5.42876221278759, 51.4252064954581], [5.42863491430026, 51.4262254441694], [5.42840833149961, 51.4279360891071], [5.4284062524276, 51.4280541022517], [5.42842805357145, 51.4281844663505], [5.42858403125675, 51.4286386089138], [5.4286258536932, 51.4287583412058], [5.42867616083325, 51.4291321445175], [5.42866254781622, 51.4296433266939], [5.42869448350202, 51.4297371301407], [5.42869594210316, 51.4297756730831], [5.42856343747967, 51.430381090076], [5.42855821099897, 51.4304530912714], [5.42856379641265, 51.4305232998644], [5.42842217373582, 51.4311954249212], [5.42814055647506, 51.4324769508576], [5.42805218371001, 51.43290459136], [5.42791000246131, 51.4335479159993], [5.42786710525947, 51.4337420235388], [5.42777910364697, 51.4338323546027], [5.42728847007043, 51.4336456056943], [5.42721610260322, 51.433723256895], [5.42711936135326, 51.434132005343], [5.42709580619184, 51.4342315180929], [5.42684579817302, 51.4357262857582], [5.42676746461433, 51.4364584400911], [5.42675909556719, 51.4365758350389], [5.42683477678296, 51.4366646622508], [5.42700228166579, 51.4367659072532], [5.42718967992552, 51.4368210152793], [5.42761150369755, 51.4369935954559], [5.42771942620699, 51.4370281821819], [5.42789417745186, 51.437091140606], [5.4284880934653, 51.437336770992], [5.42902375489153, 51.4375669139042], [5.42931168073045, 51.4376914107592], [5.42976828409896, 51.4378817501025], [5.4298434831649, 51.4378153141641], [5.43081048817347, 51.4371403457495], [5.43146557698727, 51.4367678587129], [5.43151173757616, 51.4367631490083], [5.43153872349419, 51.4367692330229], [5.43155659916231, 51.4367832665024], [5.43175448849824, 51.4368691224324], [5.43199372928316, 51.4373980318359], [5.43211227534053, 51.4375697236414], [5.43260189968747, 51.4374746936376], [5.4330298047353, 51.4373892499249], [5.4331156963529, 51.4375782028738], [5.43313361521156, 51.4376343570249], [5.43339000113822, 51.4376048353734], [5.43378015908301, 51.4375530036097], [5.43426970141601, 51.4374933191373], [5.43478286366326, 51.4374257218902], [5.43496300070569, 51.4374019897438], [5.43531540082449, 51.4373619794906], [5.43534298048797, 51.4374256618058], [5.4354606403425, 51.4374136220754], [5.43550335921988, 51.4373364994664], [5.43581077019549, 51.4372813335402], [5.43623622325091, 51.4372232136809], [5.43626773684285, 51.4373063096515], [5.43666869548789, 51.4372597939513], [5.43758156782528, 51.437207563865], [5.43788466515993, 51.4371692031674], [5.4379647892894, 51.4371590559184], [5.43828345233626, 51.4371125436426], [5.43880670850733, 51.4370267042213], [5.43884388609333, 51.4370909207606], [5.43900061870093, 51.4370655478577], [5.43898573458306, 51.4370410873243], [5.43905047556181, 51.4370233867123], [5.43903431224167, 51.436999618884], [5.43915109854494, 51.436967405239], [5.4394294990014, 51.4369034338522], [5.43962888043938, 51.436860000655], [5.43968629459801, 51.4368495658451], [5.44012060069928, 51.4370420500191], [5.44047055592896, 51.4370575932904], [5.44064668036106, 51.4370375395665], [5.44084016050513, 51.4370517244099], [5.44120778932382, 51.4370777920325], [5.44124317396083, 51.4369366264482], [5.44152592552937, 51.4369421934546], [5.44156823813913, 51.4369555578049], [5.44156416078086, 51.4369614832477], [5.44161658465143, 51.4369755709332], [5.44179300472142, 51.4370229663773], [5.44175976869099, 51.4370712871123], [5.44168664825683, 51.4372250187325], [5.44177432427516, 51.4372407257549], [5.44180546734772, 51.4371739432652], [5.44189213884374, 51.4371915382923], [5.44194897472179, 51.4370827306141], [5.44206170676818, 51.4371130142326], [5.44210691516659, 51.4371422689943], [5.44219496181725, 51.437131378042], [5.44223251175529, 51.4372498939012], [5.44229618884555, 51.4372451896261], [5.4423848956814, 51.4372330308146], [5.44241588332361, 51.4373714057076], [5.44263835229325, 51.437356073006], [5.44265140898613, 51.437413585296], [5.44275425459775, 51.4374023722574], [5.44273248474077, 51.4373113453805], [5.44311596493946, 51.4374189806792], [5.44308050442779, 51.4374702421551], [5.44327722431959, 51.4375321872416], [5.443227991642, 51.4375997608572], [5.44345594445132, 51.4376689354539], [5.44355245577722, 51.4376989737957], [5.44373750499908, 51.4377540564159], [5.44409689268881, 51.4378662394798], [5.44427820020834, 51.4379183568106], [5.44433329539869, 51.4379623742416], [5.4444384447534, 51.4379411182388], [5.44461548564498, 51.437813607514], [5.44512886308513, 51.4369387459859], [5.44548085714466, 51.4362524826153], [5.44552381520567, 51.4360840133326], [5.44550015027252, 51.4359318289817], [5.44540516096165, 51.4356611287371], [5.4455804674541, 51.4356370950128], [5.44703718605327, 51.4354436103023], [5.44725968374268, 51.435414713852], [5.44740554801459, 51.4354110609238], [5.44755365500039, 51.4354068493514], [5.44777604548253, 51.4354059157358], [5.44799825762001, 51.4354114536347], [5.4482407867598, 51.435424926434], [5.44870437445688, 51.4354840523411], [5.44900178643067, 51.4355317952946], [5.44941484658456, 51.4356166528268], [5.45002482836706, 51.4357405034421], [5.45015590024198, 51.435500794527], [5.45056575368538, 51.4347143416242], [5.44984412290665, 51.4347215190055], [5.44978645910522, 51.4345462798938], [5.45001666816682, 51.4341688112301], [5.45021792455724, 51.4342285040029], [5.4503475565401, 51.4342616108866], [5.45052949469705, 51.4340167683273], [5.45093314324765, 51.4334867283678], [5.45138871053706, 51.433601029501], [5.45136004859912, 51.4336513099867], [5.45106391601396, 51.434017662599], [5.45149808254721, 51.4341163077957], [5.45132051842294, 51.4344309734815], [5.45166350056387, 51.4345099111918], [5.45164426178651, 51.4345425687192], [5.45176974797132, 51.4345714336659], [5.45180474968419, 51.4346109194539], [5.45188625715646, 51.4345775980786], [5.45191296788334, 51.4345609901271], [5.45205758523415, 51.4345928193698], [5.45221697142208, 51.4346241817563], [5.45239299318992, 51.4343108009496], [5.45275414134684, 51.4336701998123], [5.4533176735192, 51.4326742052414], [5.45358386050278, 51.4322037210866], [5.45371340964163, 51.4319652583296], [5.45423512777446, 51.4312642823114], [5.45447653663223, 51.4311557933944], [5.45499248322808, 51.4309202331346], [5.45504165828142, 51.4308981911889], [5.4550276453704, 51.4308838444403], [5.45487036608665, 51.4307918380396], [5.45475395415429, 51.4307382702573], [5.45462124795799, 51.4306831747402], [5.45423144799049, 51.4305116533326], [5.45353986342016, 51.4301511453611], [5.45347727914527, 51.4301185251664], [5.45330796098265, 51.4300302628025], [5.45311840771848, 51.4299394049448], [5.45290928809556, 51.4298509038793], [5.45254416254994, 51.4297196141856], [5.45222848615752, 51.4296260212002], [5.45135353376946, 51.4294166304177], [5.45124126918258, 51.4293824454175], [5.45087661430755, 51.4292525704487], [5.45086746987069, 51.4292531507305], [5.44995074115753, 51.4293025114435], [5.44985122863793, 51.4292656126304], [5.44971636996572, 51.4292062880033], [5.44964001438087, 51.4291631743694], [5.44953930015725, 51.4290882717943], [5.44945573760212, 51.4290110768306], [5.44941122216804, 51.4289708583321], [5.44939362212446, 51.4289498522117], [5.44935525699114, 51.4288643903725], [5.44932676443255, 51.4287639211379], [5.44931519055642, 51.4287332219878], [5.44930165379736, 51.4287182630648], [5.44927967849187, 51.4287047738006], [5.44926534913969, 51.4286990916149], [5.44906009250193, 51.4286395521063], [5.44892152945304, 51.4285820712164], [5.44872653067424, 51.4283873089498], [5.4485147959735, 51.4282136066728], [5.44819548605099, 51.4280231157044], [5.44791765502999, 51.4279031633537], [5.44710313180903, 51.4278465436906], [5.4468898701883, 51.4277849910215], [5.44646301310375, 51.4276470713372], [5.44579367664181, 51.4274207160654], [5.44541134969184, 51.4276827933538], [5.44397902090232, 51.4272110926349], [5.4441329632556, 51.4268572677917], [5.44302388629901, 51.4264917057024], [5.44202428313418, 51.4263124977439], [5.44103483001857, 51.4262354059198], [5.44075279393494, 51.4263662676075], [5.44059547900117, 51.4264392561766], [5.44015547419286, 51.4264919514096], [5.43945898736513, 51.4261569619232], [5.43877902948206, 51.4258330349882], [5.43790558220825, 51.4255236514658]]]}, "properties": {"key": 3, "source_names": ["DE HURK"], "ha": 216.0}}, {"type": "Feature", "geometry": {"type": "Polygon", "coordinates": [[[5.40252707539918, 51.4574020083831], [5.40141774140336, 51.4581862469296], [5.40028548274356, 51.459005805642], [5.39884313548037, 51.4600496517503], [5.39792979078705, 51.4606982286536], [5.39727645261058, 51.4611662850482], [5.39646118104111, 51.4618353591921], [5.39541250725372, 51.4627948658234], [5.39471565087001, 51.4635675340038], [5.39413726901022, 51.4643181918501], [5.39373571757965, 51.4649350969951], [5.39345807189708, 51.4654127091667], [5.39321468841045, 51.4658938864305], [5.39284115345413, 51.466764799337], [5.39261007768466, 51.4674818847656], [5.39243758778972, 51.4681939045106], [5.39233782732869, 51.468933804293], [5.39221899807547, 51.4708670721398], [5.39880210693069, 51.4692942729657], [5.40217353982176, 51.4712655286111], [5.4024226720679, 51.4707076103768], [5.40249075332061, 51.4706210189753], [5.40258709647969, 51.4705387706464], [5.40268914650246, 51.4704458195735], [5.40287614186837, 51.4703526716324], [5.40305311595449, 51.4702948268226], [5.40323287016367, 51.4702451583342], [5.40345246225202, 51.4702136203266], [5.403687666813, 51.4701904274219], [5.40372906139538, 51.4695353678806], [5.40383352137785, 51.4686764957897], [5.40388386922966, 51.4683775977118], [5.40389133673264, 51.4683335612027], [5.40412333891757, 51.4679721652582], [5.40430961362468, 51.4673360194523], [5.40478780083857, 51.4661267032556], [5.40437327757437, 51.4659532849902], [5.40520124847297, 51.4650247197694], [5.40579483871323, 51.4635969387898], [5.40634524267203, 51.4623881165859], [5.40638825000095, 51.4622084081548], [5.40657762722621, 51.4623319794192], [5.40653931188555, 51.4621045548386], [5.40649078766344, 51.4619626140992], [5.4063401560704, 51.46168453019], [5.40611860610745, 51.4614537381269], [5.40568016042195, 51.4610983080433], [5.40551156198512, 51.4608498885142], [5.40537377445719, 51.4604615374043], [5.40540275715046, 51.4601802237255], [5.40555916131724, 51.4599183501799], [5.40575457616703, 51.4596670228107], [5.40599378175804, 51.4593647761833], [5.40617615189195, 51.4590350241716], [5.40382052370777, 51.4579595456834], [5.40252707539918, 51.4574020083831]]]}, "properties": {"key": 4, "source_names": ["BRAINPORT INDUSTRIES CAMPUS"], "ha": 92.9}}, {"type": "Feature", "geometry": {"type": "Polygon", "coordinates": [[[5.43739472889908, 51.4794318625251], [5.43710416703713, 51.479632524443], [5.43782868635333, 51.4798989938952], [5.437755496036, 51.4799725529024], [5.43893830837886, 51.4804344978981], [5.43920826128995, 51.4805433556883], [5.44018126423855, 51.4809241694029], [5.44032364872413, 51.4809836541568], [5.44033402073415, 51.4810021120913], [5.44027349260603, 51.4810685838271], [5.44045050509088, 51.4811330412988], [5.44116831767825, 51.4814128861444], [5.44117962152813, 51.4814155595093], [5.44119610533742, 51.4814161091455], [5.44121577960848, 51.4814121090416], [5.44122790760416, 51.4814056675328], [5.44179355874569, 51.4808396577986], [5.44180652082072, 51.4808446853495], [5.44270767922702, 51.4799422836964], [5.44401494339443, 51.4786362037597], [5.44403589064374, 51.4786152769343], [5.44419005725129, 51.4785210813056], [5.44440325476508, 51.4785057138353], [5.44452985661, 51.4784934898096], [5.44464338719461, 51.4784921483718], [5.4456734311984, 51.4785298723984], [5.44568163619029, 51.4785298053496], [5.44568760697524, 51.4785274023761], [5.44569017835426, 51.4785232752929], [5.44573597415053, 51.4780128049029], [5.4457419342454, 51.4779797596308], [5.44575708124656, 51.4779379368095], [5.44578024793331, 51.4778975750938], [5.44656414319464, 51.4769407491966], [5.4465569093851, 51.4769237014244], [5.44653891630228, 51.4767800540265], [5.44720131431411, 51.4759720478698], [5.44576328905379, 51.4754569407683], [5.4456105236555, 51.4753985824405], [5.44491554535595, 51.4761491403263], [5.4449055341983, 51.4761547811808], [5.44489324598817, 51.4761582299347], [5.44487984624024, 51.4761591624173], [5.44487313792197, 51.4761586444051], [5.44343518839176, 51.4760378226559], [5.44344636431545, 51.4759845235471], [5.44344823403189, 51.4759600016078], [5.44344598629415, 51.4759348704335], [5.44342263504815, 51.4758849408011], [5.44340081600968, 51.4758635044401], [5.44335197565503, 51.4758390249958], [5.44255165689742, 51.4755339747237], [5.44279400159472, 51.4752698983451], [5.4424066253481, 51.4751199366609], [5.44208108068691, 51.4754421362187], [5.44215176502303, 51.4754983627619], [5.44190608258596, 51.4757559585552], [5.44112228849772, 51.47620733942], [5.44091144257489, 51.4764750651037], [5.44123788039521, 51.476649778894], [5.44097382196496, 51.4767144219281], [5.44091210032243, 51.4767763103558], [5.44072086827857, 51.4769690433143], [5.44080411891755, 51.4770858573564], [5.44107908342855, 51.4774164045424], [5.44012210297933, 51.4774865783462], [5.44012323527331, 51.4774947664884], [5.43971701731755, 51.4774910857191], [5.43949358067358, 51.4777124870209], [5.43940550227325, 51.4778147725031], [5.43912112633875, 51.4777051036282], [5.43855642610733, 51.4782663001985], [5.43802615720589, 51.4788000186381], [5.43739472889908, 51.4794318625251]]]}, "properties": {"key": 5, "source_names": ["ACHTSE BARRIER"], "ha": 22.1}}, {"type": "Feature", "geometry": {"type": "Polygon", "coordinates": [[[5.4530334163536, 51.4956855035149], [5.45060306567272, 51.4953679366329], [5.45067606082495, 51.4965520960884], [5.450867929586, 51.4979651489867], [5.45098427642798, 51.4991847535338], [5.45075441636604, 51.4995856829253], [5.4508357961406, 51.5000037002096], [5.45115994089362, 51.5003857195241], [5.45124391338217, 51.5006984780753], [5.45129281934495, 51.5007575514634], [5.45147640889908, 51.5012406346196], [5.45149817742666, 51.5013572052732], [5.4507254607835, 51.5014282805131], [5.45121385556817, 51.5036127289361], [5.45308232753977, 51.5036694018939], [5.45581392631501, 51.5037661228969], [5.45701933313088, 51.5038335847266], [5.45891812228244, 51.5039426847767], [5.46187429469826, 51.5040488692966], [5.46288117125923, 51.5040803444534], [5.46374918100946, 51.5041320009208], [5.46448834794134, 51.5041524380979], [5.46655721737142, 51.504215746487], [5.46911891431451, 51.5042987439233], [5.47066175526831, 51.5043466721504], [5.47182132557192, 51.5043979153106], [5.4717994249586, 51.5043164042763], [5.47167324117908, 51.504232002693], [5.47155650602846, 51.5041939755013], [5.47161850564243, 51.5041524030551], [5.47202341906602, 51.5043307130139], [5.47507519166278, 51.5044330777482], [5.47515782666223, 51.504264478428], [5.47519844751165, 51.5042666949092], [5.47520123654808, 51.5042937486018], [5.47525736318885, 51.5043446717642], [5.47545095642961, 51.5044270409587], [5.47587431900494, 51.5043819560506], [5.4761745687577, 51.5042073475412], [5.47627575203979, 51.5042451123827], [5.47618520291713, 51.504341989215], [5.47638624512381, 51.5044761257248], [5.47873037903035, 51.5045335786677], [5.48077345814702, 51.5046088894097], [5.48574455571944, 51.5047598181185], [5.48602892293281, 51.5045172435685], [5.48634046970521, 51.5047844808061], [5.48646262278013, 51.5047249619078], [5.48740748676697, 51.5047514157187], [5.48782145503456, 51.5047671846027], [5.48780356056948, 51.5048036220172], [5.48896221611287, 51.5048760441165], [5.48940263937812, 51.5048894022982], [5.48940688955373, 51.504813147951], [5.48970655094346, 51.5048206688961], [5.48982479357591, 51.5048299849158], [5.49112269210616, 51.5048659307869], [5.4915253046885, 51.5049282757717], [5.49189722315315, 51.5049398341744], [5.49226393207517, 51.5047353002393], [5.49247949747581, 51.5037815279857], [5.49251802389148, 51.5036070416681], [5.49254486516268, 51.503499054863], [5.492563361297, 51.5034258166869], [5.49261850126048, 51.5032050597714], [5.49266751588028, 51.5031005674317], [5.4931732245676, 51.502323625006], [5.49313890561682, 51.5022627401986], [5.49301689873984, 51.5022300694828], [5.49310971160865, 51.5021143463135], [5.49326214286443, 51.5021005898859], [5.49340333387063, 51.5019547644276], [5.49317089581662, 51.5019242438739], [5.49334994516346, 51.5016838595042], [5.49347456998035, 51.5015186605473], [5.49357638242936, 51.5012310929533], [5.49371125231927, 51.5009400074618], [5.49381761742437, 51.5007647845061], [5.49389304579123, 51.5006689864454], [5.49411232973021, 51.500418316989], [5.49449216912638, 51.4998718899558], [5.49490995761089, 51.4992629735123], [5.49503885545949, 51.4989736897223], [5.49506710452672, 51.4989102936676], [5.49520834825858, 51.4985931335156], [5.4953675029612, 51.4980935231208], [5.49539160315056, 51.4980178703292], [5.49539062197761, 51.4977871328415], [5.49538896475124, 51.4973933420362], [5.49231048693136, 51.4973979302135], [5.48950824429432, 51.497401610559], [5.4881713423832, 51.4974158730228], [5.4872790699393, 51.4974446423378], [5.48655790506533, 51.4974985171455], [5.48620992276474, 51.4976246003565], [5.48513664184224, 51.4977680671621], [5.48442140638629, 51.4978641254464], [5.48367561453759, 51.4978135999374], [5.4837318771889, 51.497656701579], [5.48357227491032, 51.4975021391971], [5.48356055553237, 51.4973405331439], [5.48267558893481, 51.4975983367606], [5.48255787073409, 51.4978430140661], [5.4821273949709, 51.4978288040557], [5.48207462125703, 51.4984179624745], [5.47860152717938, 51.4983019995295], [5.4781581536176, 51.4987741243214], [5.47737060574147, 51.4996669671007], [5.47659938005784, 51.5005995937444], [5.47668934205265, 51.5006328095987], [5.47664357680479, 51.5010075541975], [5.47596957032222, 51.5012690369867], [5.47522108643364, 51.5012800587906], [5.47391380457134, 51.501232581686], [5.47382290553706, 51.5009268018769], [5.47366342605325, 51.5003564833118], [5.47344905531035, 51.4996895952527], [5.47340242982601, 51.4995643011536], [5.47323703453957, 51.499218252913], [5.47286837743225, 51.4986484112218], [5.47285629598835, 51.4986566896562], [5.47273268480457, 51.4985009624442], [5.47261140458942, 51.4983590309519], [5.47245951175456, 51.4982035668797], [5.4722903273756, 51.4980574454516], [5.47218107612048, 51.4979702275573], [5.4720354962371, 51.4978623981135], [5.47184709687088, 51.4977358493168], [5.471674088162, 51.4976298550601], [5.47140353382147, 51.4974800845334], [5.4711286631037, 51.4973314490585], [5.47101509721933, 51.4972607363228], [5.47071185078173, 51.4970916531517], [5.47040523194256, 51.4969434881672], [5.47013440145308, 51.4968272515095], [5.46997599612431, 51.4968047218326], [5.4684132619567, 51.4968357993324], [5.46840908983033, 51.4965078696886], [5.46825755893632, 51.4965033820752], [5.46801609117802, 51.4965040083361], [5.4680070474935, 51.4968438750899], [5.46646415828575, 51.4968439288834], [5.46513530478492, 51.4969602671245], [5.46389894576964, 51.4969176641377], [5.46389364762565, 51.4969781252186], [5.46342756707671, 51.4968916280546], [5.46276337960663, 51.4968664704313], [5.46273551985149, 51.496748629468], [5.46160876644442, 51.4967113691799], [5.4600633648127, 51.4964169351823], [5.45868934792278, 51.4962135563418], [5.45666516885846, 51.4960688966114], [5.4530334163536, 51.4956855035149]]]}, "properties": {"key": 6, "source_names": ["EKKERSRIJT"], "ha": 227.7}}, {"type": "Feature", "geometry": {"type": "Polygon", "coordinates": [[[5.4092273, 51.4040685], [5.4097089, 51.403138], [5.4100424, 51.4024938], [5.4099163, 51.4023248], [5.4091305, 51.4021993], [5.4058072, 51.4015149], [5.4057321, 51.4014672], [5.4067768, 51.3999863], [5.4105553, 51.4010636], [5.4107246, 51.4010257], [5.410772, 51.4009476], [5.4193532, 51.4032956], [5.4191643, 51.4034342], [5.4190161, 51.403546], [5.4185211, 51.4039443], [5.416178, 51.405858], [5.4159102, 51.4057269], [5.4157045, 51.405795], [5.414806, 51.4064476], [5.4146183, 51.4064794], [5.4144198, 51.4064175], [5.4140121, 51.4062066], [5.4131806, 51.4059205], [5.4108122, 51.4048865], [5.4101631, 51.404664], [5.4093879, 51.4043645], [5.4092351, 51.4042591], [5.4092273, 51.4040685]]]}, "properties": {"key": "ASML", "source_names": ["ASML"], "ha": 29.0}}]}