{"type": "FeatureCollection", "features": [{"type": "Feature", "geometry": {"type": "Polygon", "coordinates": [[[6.01028840690382, 51.9619000443663], [6.01036022405169, 51.9619685776932], [6.01036108329044, 51.9619696426518], [6.01157704964276, 51.9634829488719], [6.01164642257959, 51.963569270531], [6.013298788433, 51.9631286620376], [6.01523444144782, 51.9626117386806], [6.01725341476121, 51.9620725221996], [6.01871221895559, 51.9616991701602], [6.0197183054888, 51.961417384175], [6.02008096430713, 51.9613072020962], [6.02038652501886, 51.9612143686757], [6.02061590284134, 51.9611339892735], [6.02076855218692, 51.9610603691566], [6.02098144827001, 51.9609009441449], [6.02114331030279, 51.9607544582486], [6.02155570945815, 51.960288474265], [6.02160213827574, 51.9602360190805], [6.02192125417495, 51.9599810558669], [6.02209578651132, 51.959879145449], [6.02220577088996, 51.9598149161771], [6.02220580043917, 51.9598149039472], [6.02263395512835, 51.9596669850359], [6.02258293658437, 51.9595796515511], [6.02201462604847, 51.9586069013357], [6.02184489230271, 51.9586082486686], [6.02180949865207, 51.9586262465156], [6.02180943515868, 51.9586262628579], [6.0216474664444, 51.9586363943352], [6.02151633186914, 51.9586463591028], [6.02137727608821, 51.9586424806317], [6.02126898920899, 51.9586291785972], [6.02118399335985, 51.9586250075101], [6.02101393652079, 51.9586120370069], [6.02097565579642, 51.9586057002456], [6.02092537343155, 51.9585973783532], [6.02090558426708, 51.9585941054834], [6.02082052317727, 51.9585853066636], [6.02068172955734, 51.9585999420759], [6.02041259880601, 51.9586800936821], [6.02027563000568, 51.9587241380181], [6.02010513258177, 51.9587789777485], [6.01986093177417, 51.9588473820067], [6.01972106506057, 51.958890245824], [6.01845782739753, 51.9592965461222], [6.01784681144426, 51.9594958367098], [6.01750483426079, 51.9596037977596], [6.01740359847911, 51.9596357552914], [6.01727776590124, 51.9596853047279], [6.01727773257495, 51.9596853144942], [6.01717913124987, 51.9597051540778], [6.01698573047635, 51.959765477656], [6.01686392201876, 51.9598017067016], [6.01631553102348, 51.9599877106783], [6.01529771005969, 51.9602962172354], [6.01522602324906, 51.9603179478313], [6.01455087695351, 51.9605225794827], [6.01423494388937, 51.9606254034523], [6.01301212828014, 51.9610233484721], [6.01291466922026, 51.9610480108206], [6.01263959313158, 51.9611337053728], [6.01252140916219, 51.9611705216249], [6.01184281245785, 51.9613819155223], [6.01116395055555, 51.9615989424207], [6.01041087016598, 51.9618583084191], [6.01035780930102, 51.9618763868427], [6.01028840690382, 51.9619000443663]]]}, "properties": {"key": 1, "source_names": ["Centerpoort Zuid"], "ha": 19.5}}, {"type": "Feature", "geometry": {"type": "Polygon", "coordinates": [[[5.80933197549386, 51.8254626187659], [5.81015286444534, 51.825566742001], [5.81073432402002, 51.8256404869026], [5.81074663953491, 51.8256420427939], [5.81229261678355, 51.8258794583691], [5.8128652580586, 51.8259437859277], [5.81365719173075, 51.826032733274], [5.81368405614519, 51.8260357455326], [5.81422970258867, 51.826106906908], [5.8152024269914, 51.8262337544992], [5.81579291382573, 51.8263107581467], [5.81586027465169, 51.8263195362264], [5.8172902720707, 51.8264892849361], [5.81814744251352, 51.826588739705], [5.81837056823758, 51.8266140084136], [5.81838897209788, 51.8266024468639], [5.81838903280603, 51.8266024241694], [5.81838910240687, 51.8266024212168], [5.81876079418825, 51.8266455407196], [5.81876087862206, 51.8266455718683], [5.81876091253627, 51.8266456292696], [5.8187610695553, 51.8266609009876], [5.81904327823613, 51.8266945264514], [5.81916011330159, 51.8267084415084], [5.82033164870209, 51.8268479963799], [5.8205975432886, 51.826879318028], [5.82148486316486, 51.8269838233172], [5.8216234387517, 51.8270001451749], [5.82169502867221, 51.827009353653], [5.82198430784873, 51.8270465448266], [5.82208227428713, 51.8270606797742], [5.82221247505578, 51.8270794678841], [5.82238546979851, 51.8271103122912], [5.82239483088675, 51.8271119853424], [5.8228799824655, 51.8271882588867], [5.82294987690541, 51.8271101568625], [5.8231037504381, 51.8269501437252], [5.82339849536272, 51.8265664837349], [5.82367596286935, 51.8262068204504], [5.82380157154095, 51.8261048957614], [5.82390989458184, 51.8259953582925], [5.82406367436131, 51.8258955700721], [5.82430784268565, 51.82576319442], [5.8246928375328, 51.8255699342991], [5.82502457504517, 51.8253876347002], [5.8250919870787, 51.825345998186], [5.82511197196818, 51.8253336632569], [5.82515613744098, 51.8253063800449], [5.82519696345309, 51.8252811631593], [5.82521328033031, 51.8252681363237], [5.82526917144225, 51.825223497463], [5.82549836121736, 51.8250532584177], [5.82554788480999, 51.8250076760713], [5.82576660841672, 51.8248063368774], [5.82597692998955, 51.8245730693155], [5.82598139613961, 51.8245624192383], [5.8260071523097, 51.8245010569661], [5.82599884689758, 51.824443565899], [5.82597896309867, 51.824383743869], [5.82597893964574, 51.824383718789], [5.82590513248295, 51.8243456515878], [5.82578875501175, 51.8243029491839], [5.82502988519111, 51.8240761775544], [5.82464604841391, 51.8239553764641], [5.82427527280313, 51.823835037851], [5.82397672471349, 51.8237402807142], [5.82353486068876, 51.8236125096974], [5.82351988965724, 51.8236078374978], [5.82346898249342, 51.8235919646099], [5.82340402101959, 51.8235717126931], [5.82339636891284, 51.823569322825], [5.82325939812859, 51.8235080731951], [5.8232477028083, 51.8235016450103], [5.82315637122071, 51.823451415646], [5.82313041392221, 51.8234371306463], [5.82312353088952, 51.8234333451366], [5.82305447127864, 51.823385207612], [5.82296859886474, 51.8233099972706], [5.82287255546256, 51.8231882733934], [5.82271609463467, 51.8230895138901], [5.82264725336771, 51.8230457810124], [5.82234444245287, 51.8228651848995], [5.8218749856078, 51.8225834935625], [5.82174001899489, 51.8225025126776], [5.82069360749224, 51.8219031814685], [5.82060751234981, 51.8218538561162], [5.82055202172141, 51.8218135507262], [5.82038741998392, 51.8216939833972], [5.82032915016386, 51.8216516626225], [5.82025867074693, 51.8216087541467], [5.82020610327152, 51.8215767337001], [5.81984111185227, 51.8213516441098], [5.81954611239584, 51.8211663568144], [5.81933434229294, 51.8210356365318], [5.81922739246205, 51.8209696060371], [5.81896984845596, 51.820804195639], [5.81844670039019, 51.8204848837793], [5.81839099814005, 51.8204508786144], [5.81832209563538, 51.8204088251684], [5.81806778157456, 51.8202666711606], [5.81798855766599, 51.820222397561], [5.81798212697093, 51.8202187988451], [5.817923230359, 51.8201858748278], [5.81790780269949, 51.8201772567542], [5.81790777786305, 51.8201772379697], [5.81767756279145, 51.819950821115], [5.81737187518691, 51.8197487801462], [5.81733959843042, 51.8197488956192], [5.81733956078181, 51.8197489020493], [5.81722570490369, 51.819792434875], [5.81722567163175, 51.8197924439856], [5.81719346761072, 51.8197987120593], [5.8171934299363, 51.819798715793], [5.81711893653707, 51.8198005351051], [5.81711889735222, 51.8198005325523], [5.81706293220915, 51.8197922769939], [5.81706289149679, 51.8197922663571], [5.81698312366008, 51.8197632991929], [5.81669557502646, 51.8196208708431], [5.81659737150249, 51.8195722354429], [5.81635272587057, 51.8194556693257], [5.81626926806749, 51.8194113462523], [5.81530970739871, 51.8189283284268], [5.81520664850194, 51.818872552086], [5.81498697899375, 51.8187670672829], [5.81471983426569, 51.8186340321313], [5.81457384513584, 51.8185675690486], [5.81446912298662, 51.8185309781768], [5.81433961739818, 51.818500645434], [5.81423663328671, 51.8184835750235], [5.81407914073325, 51.8184574530524], [5.81393680872938, 51.8184349968929], [5.8125463816524, 51.8182281125989], [5.8124411568762, 51.818212450051], [5.81232548295297, 51.8181951447712], [5.81228337313028, 51.8182861814371], [5.81202310768869, 51.8189561531302], [5.81169146909229, 51.8197686719527], [5.81156590808205, 51.8200625381208], [5.81150415229035, 51.8202182343398], [5.81145491993117, 51.820342327579], [5.81125665315533, 51.8208448352751], [5.81121352224764, 51.8209546955575], [5.81075446491053, 51.8221037690315], [5.81055613605984, 51.8225982390265], [5.8104787448553, 51.8228025935337], [5.8104093431854, 51.8229342015665], [5.8103339997617, 51.8230770638889], [5.81028685542611, 51.8231864735732], [5.81028336349972, 51.8231945937723], [5.80935804797805, 51.8254007683076], [5.80933197549386, 51.8254626187659]]]}, "properties": {"key": 3, "source_names": ["Winkelsteeg NXP"], "ha": 64.1}}, {"type": "Feature", "geometry": {"type": "Polygon", "coordinates": [[[6.62973131950845, 52.32291790736], [6.62972874812497, 52.3229221581516], [6.62961959320571, 52.323102563249], [6.62960895257672, 52.3231312032409], [6.6295926722841, 52.3231750187062], [6.62951606440365, 52.3233812026395], [6.62950140433031, 52.3234219044742], [6.62944664005296, 52.3235694245212], [6.62943037415926, 52.3236132416045], [6.62940924364052, 52.3236701595152], [6.6293853480784, 52.3238196220938], [6.62935417549201, 52.3240145681757], [6.62934702401617, 52.3240592908467], [6.62934002727384, 52.3241030429144], [6.62929016269581, 52.3242424325023], [6.6292654641, 52.3243008216027], [6.62920362511371, 52.3244527269077], [6.62920327236951, 52.3244535944229], [6.62920030469049, 52.3244608839359], [6.62918484182359, 52.324497086378], [6.62914474231215, 52.3245909680315], [6.62913374985842, 52.3246167038591], [6.62902349417071, 52.3248748349728], [6.62901109598382, 52.3248789561664], [6.6290093924702, 52.3248839789402], [6.62900200262873, 52.3249057749379], [6.62901831488929, 52.3249146641494], [6.62901238513363, 52.3249276646981], [6.62883647353784, 52.3253133015912], [6.62881673213645, 52.3253565798302], [6.62878328274663, 52.3254299072603], [6.62928295758584, 52.3253582270399], [6.6293051818487, 52.3253556762675], [6.62937726805821, 52.3253474007604], [6.63002603705773, 52.3252729264722], [6.63009812302102, 52.3252646514247], [6.63021361899958, 52.3252513923328], [6.63075050942908, 52.3252035021322], [6.63082308426998, 52.325197029116], [6.63147625373767, 52.3251387628092], [6.63154882836393, 52.3251322893479], [6.63170403944997, 52.3251184426734], [6.63169114943583, 52.3250641943154], [6.63171609472706, 52.325061644106], [6.63189987990556, 52.3250432501279], [6.63208365197251, 52.3250252308277], [6.63209957151866, 52.3250237014105], [6.63217202507035, 52.3250167389574], [6.63226741057968, 52.3250075736251], [6.63240845226288, 52.3249942851297], [6.63245113330459, 52.3249902634757], [6.6326348285224, 52.3249732850106], [6.6328184855313, 52.3249566239442], [6.63282460961462, 52.3249560785243], [6.63289718687477, 52.3249496122813], [6.63300210831432, 52.3249402649579], [6.63318568474249, 52.324924192912], [6.63336921155832, 52.324908396156], [6.63355073878614, 52.3248930192915], [6.63355267212859, 52.324892856888], [6.63362340787356, 52.3248869570213], [6.6337360850929, 52.3248775596312], [6.63391943250231, 52.3248624919912], [6.63398762020803, 52.3248569657392], [6.63410271243879, 52.3248476378086], [6.63427769545543, 52.3248336375971], [6.63428592890086, 52.3248329826599], [6.63435043179044, 52.3248278869745], [6.63446906244713, 52.3248185132675], [6.63465212291656, 52.3248042142473], [6.63483509812441, 52.3247900695488], [6.63500524189145, 52.3247770370706], [6.63501799060156, 52.3247760647635], [6.63507802387212, 52.3247715075371], [6.63520080439591, 52.3247621872652], [6.63538351412284, 52.3247484211427], [6.63556613697817, 52.324734751833], [6.63573317095195, 52.3247223156308], [6.63574866669266, 52.3247211650208], [6.63576164599822, 52.3247202036809], [6.63580597848779, 52.3247169184101], [6.63593109262241, 52.3247076473361], [6.63611341426275, 52.3246941808074], [6.63629563864378, 52.3246807545744], [6.63636929037087, 52.3246753337041], [6.63639488327438, 52.3246734498062], [6.63646129131641, 52.324668562045], [6.6364777637938, 52.3246673506811], [6.63650492900979, 52.3246653521674], [6.63653410716828, 52.3246632056345], [6.63665971175828, 52.3246539618621], [6.63684152147679, 52.3246405643361], [6.6370231571704, 52.3246271378081], [6.63718940814016, 52.3246147941117], [6.63720461974869, 52.3246136624942], [6.63726220843777, 52.3246093601134], [6.63738589545568, 52.3246001187655], [6.63756697624926, 52.3245864815398], [6.63774787772895, 52.3245727317767], [6.63791726354457, 52.3245597210904], [6.63792857584661, 52.3245588490576], [6.63799002086912, 52.3245540695716], [6.63810907140897, 52.3245448100042], [6.63828937116467, 52.3245305938722], [6.63846945556543, 52.3245161837909], [6.63864455834745, 52.324501943022], [6.6386493195002, 52.324501554647], [6.63871723791303, 52.3244959332296], [6.63882896680888, 52.3244866866259], [6.63900838813211, 52.3244715600526], [6.63918757405952, 52.3244561534549], [6.63936651963084, 52.3244404471113], [6.63937094751004, 52.3244400496531], [6.63944351308055, 52.3244335417492], [6.63954522570078, 52.3244244194411], [6.63972367413491, 52.3244080517613], [6.63990187162829, 52.3243913215302], [6.64007979716342, 52.3243742118935], [6.64009601791032, 52.3243726125836], [6.64016842613647, 52.3243654748961], [6.64025745154317, 52.3243566994731], [6.64041570953208, 52.3243406993579], [6.6408175646748, 52.3242925236067], [6.64088953741978, 52.324283895278], [6.64153729642381, 52.3242062365583], [6.64159892212381, 52.3241988483643], [6.6416092688502, 52.324197607802], [6.64162063460238, 52.3241962449664], [6.6417867523566, 52.3241763286566], [6.64191904683475, 52.3241572735678], [6.64205780618823, 52.3241368184854], [6.64208392560854, 52.3241329250904], [6.64211902029554, 52.3241276941811], [6.64219731017918, 52.3241159319678], [6.64225267490258, 52.3241077236138], [6.64228654176003, 52.3241027025415], [6.64232395555287, 52.3240971557168], [6.64233602215258, 52.3240953664992], [6.64237529385625, 52.3240892749943], [6.64238706016157, 52.3240874494095], [6.64247304802259, 52.3240741113618], [6.64259703627567, 52.3240545495555], [6.64260079693699, 52.3240539559178], [6.6426115122954, 52.3240522655145], [6.64263500720428, 52.3240485275068], [6.64274660769604, 52.3240296211346], [6.64288757914972, 52.3240068557591], [6.64296239997072, 52.3239946004504], [6.64302388617405, 52.32398452898], [6.64303057095019, 52.3239833811263], [6.64303321624875, 52.3239829269627], [6.64316613518931, 52.3239601083906], [6.64331462957392, 52.3239375772031], [6.64345754843493, 52.3239173468496], [6.64359616644281, 52.3238975458469], [6.64367395680133, 52.323886095382], [6.64373274110269, 52.3238774428072], [6.64374522749323, 52.3238755105591], [6.6438705951518, 52.3238561071457], [6.64401073456855, 52.3238346148928], [6.64413860324126, 52.3238150066289], [6.64414909598721, 52.32381338497], [6.64428708609305, 52.3237917390619], [6.64438499933262, 52.3237760732904], [6.64442479518015, 52.3237697058721], [6.64445592006121, 52.323764642329], [6.64456175631023, 52.323747425198], [6.64465676386934, 52.3237314683102], [6.64469792579083, 52.3237244939156], [6.64483770051666, 52.3237006162664], [6.64497771260899, 52.3236773552444], [6.64509261959284, 52.3236580483391], [6.64511434742376, 52.3236543978542], [6.64516319084078, 52.3236458413516], [6.64579779597743, 52.323534669917], [6.64586830844544, 52.3235223175149], [6.64591649472336, 52.3235138764583], [6.64607948386499, 52.3234785035308], [6.64612131124716, 52.3234696635927], [6.64625291265208, 52.3234418236986], [6.6464960739459, 52.3233978471752], [6.6465664112501, 52.3233851258861], [6.64668190860657, 52.323364237219], [6.64719943942713, 52.3232706369615], [6.64720264585152, 52.323270057174], [6.64726977485985, 52.3232579152707], [6.64790279939178, 52.3231434225897], [6.64797313588593, 52.3231307004659], [6.64860615677265, 52.3230162040285], [6.64867649139531, 52.323003481503], [6.64930950861118, 52.3228889804106], [6.64937984285417, 52.3228762583664], [6.65001285619177, 52.3227617535907], [6.65008319147022, 52.3227490311213], [6.65071620115783, 52.3226345225867], [6.65078653456428, 52.3226217997153], [6.65141954060182, 52.3225072874219], [6.65148987506915, 52.3224945641172], [6.65212287745651, 52.3223800480651], [6.65219321002622, 52.3223673234598], [6.65241268518134, 52.3223276186746], [6.65241536607428, 52.3223271333573], [6.65286137562206, 52.3222464424827], [6.65287209624675, 52.3222445021026], [6.65294721664441, 52.3222309114099], [6.65301755023085, 52.3222181871981], [6.65336696711056, 52.3221549698372], [6.65361513178983, 52.3221038589856], [6.65364736864062, 52.3220974849273], [6.65367389474453, 52.3220922398963], [6.65371715920774, 52.3220836856731], [6.65389911773994, 52.322047708545], [6.6538991819308, 52.3220476961719], [6.65416884588262, 52.3219943762672], [6.65434427051869, 52.3219576424135], [6.65434953019479, 52.3219565406514], [6.65441366713746, 52.3219431098947], [6.65441440207555, 52.3219429563999], [6.65476874402692, 52.3218687554178], [6.65503852931079, 52.3218129252648], [6.65510801928965, 52.3217985441407], [6.6553008460681, 52.3217586397612], [6.65536518088537, 52.3217453259102], [6.65573343193854, 52.3216693341586], [6.65580292992731, 52.3216549920864], [6.65598087387937, 52.3216182709914], [6.65642936187435, 52.3215276586684], [6.65648550404555, 52.3215163152931], [6.65649900645825, 52.3215135851686], [6.65697525133453, 52.321417213889], [6.65712504776397, 52.3213855520039], [6.65719437316162, 52.3213708990522], [6.6571944416985, 52.3213708848329], [6.65729515196974, 52.3213495980679], [6.65751073923489, 52.3212967651612], [6.65774693783754, 52.3212368834264], [6.65780678540989, 52.3212204416662], [6.65787370054783, 52.3212020587547], [6.65796352271363, 52.3211773828752], [6.65820293121373, 52.3211163826138], [6.6584804737792, 52.3210429979416], [6.65851473870712, 52.3210339382884], [6.65851477804323, 52.3210339288767], [6.65854793892383, 52.3210253997345], [6.65887589969569, 52.3209410566941], [6.65896994567557, 52.3209161350559], [6.65897157140931, 52.3209011963334], [6.65892300896267, 52.3208240564404], [6.65891991644808, 52.3208082696063], [6.65892008086247, 52.3208079154807], [6.65892414836191, 52.3207991535892], [6.65892461400098, 52.3207981517338], [6.65893338159697, 52.3207969787713], [6.65899697654735, 52.320794281149], [6.65916046972292, 52.3207873446435], [6.6591920769479, 52.3207858836661], [6.65948479807963, 52.3207723490066], [6.65952181860796, 52.3207739289828], [6.65955743525987, 52.3207782188683], [6.65959900954572, 52.3207855016744], [6.65965058478943, 52.3207957482554], [6.6596839848094, 52.3208023846412], [6.65971985061776, 52.3208104533403], [6.65977168209465, 52.3208221146279], [6.65981440383221, 52.320828486137], [6.65984317130202, 52.320829075316], [6.65988097387578, 52.3208275897057], [6.65991543185442, 52.3208220052912], [6.66010647585346, 52.3207830946956], [6.66034837205751, 52.3207295796123], [6.66041734646481, 52.3207143200123], [6.66041749369614, 52.320714287865], [6.66071721699042, 52.3206479784953], [6.66103937800821, 52.320579165924], [6.66110862356533, 52.3205643749019], [6.66118521116647, 52.320548015288], [6.66150866983285, 52.3204821474206], [6.66173367668334, 52.3204345714947], [6.66180299750517, 52.3204199140814], [6.66185538356281, 52.320408836956], [6.66242429509022, 52.3202834931495], [6.66244222533838, 52.3202795424517], [6.6624932681133, 52.3202682332414], [6.66311392581636, 52.3201307198331], [6.66318288755696, 52.3201154407644], [6.66344357391875, 52.3200576814448], [6.66380561462672, 52.3199815300949], [6.66387497272838, 52.3199669411654], [6.66397650636848, 52.3199455840559], [6.66449572461969, 52.3198296252617], [6.66456462216547, 52.3198142373102], [6.66474325832461, 52.3197743413275], [6.66518582686615, 52.3196778665588], [6.66518592745106, 52.3196778447974], [6.66525501877597, 52.3196627842305], [6.66562486592243, 52.3195821599691], [6.66587708370115, 52.3195277011799], [6.66594624571013, 52.3195127679793], [6.66645483494233, 52.319402951404], [6.66645491366, 52.3194029343724], [6.66656872288859, 52.3193783986015], [6.66663789669982, 52.3193634846418], [6.66700204109048, 52.3192849779769], [6.66715726310321, 52.3192515124388], [6.66718419110111, 52.3192456164126], [6.66726027858024, 52.3192289553267], [6.66732933156423, 52.3192138346286], [6.66732946129279, 52.3192138062576], [6.66785341795248, 52.3190990747656], [6.667951210823, 52.3190784477714], [6.66802054899546, 52.3190638224502], [6.6683251048372, 52.3189995823837], [6.66864300828148, 52.3189294647374], [6.66871200473515, 52.3189142467605], [6.66915658014769, 52.3188161874065], [6.66933436034843, 52.3187797426853], [6.66940390045292, 52.3187654873882], [6.66945288031927, 52.3187554460566], [6.66948834764922, 52.318744274883], [6.66953950100259, 52.3187074056], [6.66966140448349, 52.3186113421338], [6.66970815075076, 52.3185844081702], [6.66978065514222, 52.3185656441097], [6.66992222999159, 52.3185391858616], [6.66999237033075, 52.3185260778521], [6.67008295149196, 52.3185091497896], [6.67027660982402, 52.3184804422883], [6.67046857697852, 52.3184639765784], [6.67058807092922, 52.3184470389741], [6.67063520245766, 52.3184377228295], [6.67070066383674, 52.3184247829493], [6.67070469466824, 52.3184234160454], [6.67073407253216, 52.3184134539755], [6.67077058481306, 52.3183877093508], [6.67077773154373, 52.3183802178588], [6.67076687952313, 52.3183676589092], [6.67074914381212, 52.3183471307019], [6.67081041223984, 52.3183352825731], [6.67122020425478, 52.3182531471545], [6.67128989936306, 52.3182391775928], [6.67139545475544, 52.3182180202618], [6.67139562239494, 52.3182179842835], [6.67169279002039, 52.3181537501164], [6.67191308839442, 52.3181061312181], [6.67198223990598, 52.3180911828888], [6.67220657830931, 52.3180426907709], [6.67208652659343, 52.3179121429398], [6.67204920517782, 52.3178715582515], [6.67201473701447, 52.3178340769055], [6.67201213833406, 52.3178312530303], [6.67198529251017, 52.3178022200206], [6.67198261198447, 52.317802802859], [6.67143350475582, 52.3172122280311], [6.67111053665651, 52.3168605022224], [6.67106921598845, 52.3168155112486], [6.67090738036786, 52.3168324975059], [6.67076024220213, 52.3168479405889], [6.67071795828237, 52.316852378119], [6.67068797816194, 52.316855524297], [6.6705176360175, 52.3168734023757], [6.67003822820354, 52.3169237167425], [6.67003751897868, 52.3169237909556], [6.66996524447634, 52.3169313761317], [6.66956254232253, 52.3169736382228], [6.66956241335512, 52.3169734895103], [6.66956213110358, 52.3169731626864], [6.66955781439419, 52.3169736167034], [6.66913682882761, 52.3164913810248], [6.6691152694489, 52.3164651124979], [6.66912146294175, 52.3164630633211], [6.66910580155193, 52.3164449339333], [6.66910162914598, 52.3164404263959], [6.66907718655728, 52.3164140165453], [6.66905861203816, 52.3164044148753], [6.6685814332749, 52.3161577372129], [6.6685545834894, 52.3161438557533], [6.66849854035804, 52.3161148795734], [6.66846565455102, 52.316097877919], [6.66799411798345, 52.3158541156125], [6.66793807126049, 52.3158251419049], [6.66788728785637, 52.3157988886606], [6.6677696744531, 52.3157979210561], [6.66775196125503, 52.3157977740698], [6.66774913131573, 52.3157977507942], [6.66774917494486, 52.3157976361649], [6.66774908838465, 52.3157976353049], [6.66769543190747, 52.3157923918643], [6.66760965671507, 52.3157836581257], [6.66760961553072, 52.3157836540774], [6.66759736999913, 52.3157823808828], [6.66757689653952, 52.3157802520942], [6.66756228546635, 52.3157787330591], [6.6674985317558, 52.3157723018245], [6.66722167749872, 52.3157443734965], [6.66710954655087, 52.3157328632307], [6.66709089067905, 52.3157309483846], [6.66671290132379, 52.3156926550433], [6.66671586381836, 52.3156813457361], [6.66526225524125, 52.3155312385252], [6.66384126920704, 52.3153844826268], [6.66273597931247, 52.3152703212447], [6.66221940627964, 52.3152169554476], [6.66124756256503, 52.3151165675781], [6.66085997396371, 52.3150765380466], [6.66085699944524, 52.3150976036414], [6.66085685560477, 52.3150986227115], [6.66080291006259, 52.3150941855682], [6.66078904419056, 52.3150935754196], [6.66074900764771, 52.3150918144365], [6.66071582126545, 52.3150916146821], [6.66068982278674, 52.3150914561306], [6.66065382344292, 52.3150923859813], [6.6605846927773, 52.3150966219261], [6.66050623446397, 52.3151054256882], [6.66042198246048, 52.3151198468157], [6.66035216795171, 52.3151359919188], [6.66030076407727, 52.3151505319656], [6.66025542104619, 52.3151658076084], [6.66023762608948, 52.3151718032541], [6.66010439935154, 52.3152237103921], [6.66004252171212, 52.315247819216], [6.65997195412743, 52.3152753132342], [6.65991440434926, 52.3152969592295], [6.65979081303569, 52.3153382221229], [6.65966282407792, 52.315374100358], [6.6595310646446, 52.3154044190819], [6.65944812289428, 52.315419553489], [6.65939617299868, 52.3154290320883], [6.65937750332944, 52.3154315853591], [6.65925881009751, 52.3154478171989], [6.65915456717697, 52.3154580265095], [6.65904959443757, 52.3154648782145], [6.6589441817803, 52.3154683539123], [6.6588386163802, 52.3154684424229], [6.65873318726457, 52.3154651460301], [6.65872276202465, 52.3154646334585], [6.65864967378913, 52.3154610421369], [6.6581969108753, 52.3154387923787], [6.65819181871136, 52.3154385424146], [6.65799187719899, 52.3154287164418], [6.65791878761139, 52.3154251246838], [6.65733141415576, 52.3153962567814], [6.65726099187886, 52.3153927950822], [6.65718790384407, 52.3153892028826], [6.65653010906054, 52.3153568692858], [6.65645701967359, 52.3153532766497], [6.65579922591712, 52.3153209389825], [6.65572613811051, 52.3153173458784], [6.65534677697063, 52.315298693998], [6.65529166228848, 52.3152959846426], [6.65506834538124, 52.3152850041407], [6.65499525768882, 52.3152814105844], [6.65497185469165, 52.3152802593588], [6.6549120973351, 52.3152773209722], [6.65483965298062, 52.3152737590714], [6.65474947531801, 52.3152693356154], [6.65469340768407, 52.3152665858641], [6.6545961239996, 52.3152641674612], [6.65452478763619, 52.3152657143414], [6.65447103469818, 52.3152668794078], [6.6543513560718, 52.3152756599061], [6.65433762823946, 52.3152774187411], [6.65426585743213, 52.3152866149981], [6.65421976968639, 52.3152925211112], [6.65411314496316, 52.3153120134795], [6.65402136726807, 52.315333557847], [6.65400923980763, 52.3153364051], [6.65399068894797, 52.3153418470124], [6.6539311542517, 52.3153593118535], [6.65389634042654, 52.3153695239476], [6.65378457096652, 52.3154099707375], [6.65367907388582, 52.315456316004], [6.65367484147027, 52.31545849167], [6.65361865764948, 52.3154873657388], [6.65360802018028, 52.3154928324683], [6.65354413522893, 52.3155300064634], [6.65338888160091, 52.3156259411465], [6.65315124207903, 52.3157727828611], [6.65309960856224, 52.3158046884065], [6.65288510322122, 52.3159372343222], [6.65277902668602, 52.3159999156883], [6.65269300416527, 52.3160468480002], [6.65262158922324, 52.3160831538393], [6.6526043614758, 52.3160919116831], [6.65256404845421, 52.3161109902804], [6.65251320561362, 52.3161350525526], [6.65241964797495, 52.3161762163773], [6.65239080768251, 52.3161879937434], [6.65232380306938, 52.3162153551849], [6.6522432081224, 52.3162457141464], [6.65221870121779, 52.3162549453377], [6.65210095974599, 52.3162954877242], [6.65210056031018, 52.3162956250312], [6.6520590238442, 52.3163085826614], [6.65204126716764, 52.3163141227364], [6.65203899777252, 52.3163148301605], [6.65200568689026, 52.3163252224706], [6.65197803707319, 52.3163338481448], [6.65197204449794, 52.3163357171939], [6.65193959681331, 52.3163446440811], [6.6518927633045, 52.316357527992], [6.65181444839559, 52.3163790740185], [6.65178283614867, 52.316386385645], [6.65159897194455, 52.3164289095001], [6.65153641928093, 52.3164407587234], [6.65146206150817, 52.3164548429225], [6.65143392751071, 52.3164601721005], [6.65132848605516, 52.3164764933634], [6.65131787854263, 52.3164781357801], [6.651269665745, 52.3164856005289], [6.65126644140706, 52.316486098826], [6.65124655662976, 52.3164885056088], [6.65109696631694, 52.3165066174113], [6.65100977290062, 52.3165147712022], [6.65098311134816, 52.3165172638785], [6.65081136530852, 52.3165286513524], [6.65076640634717, 52.3165304218328], [6.6507504340053, 52.3165310500945], [6.65069642960502, 52.3165331761133], [6.6505921180738, 52.3165350452088], [6.6505813065004, 52.3165352389657], [6.65052775343622, 52.3165350823499], [6.65052771088859, 52.3165350819057], [6.65052355382158, 52.3165350688072], [6.65051880124134, 52.3165350548822], [6.6504534224453, 52.3165348628236], [6.65036411952292, 52.3165342441488], [6.65024052081145, 52.3165333887274], [6.65017576729202, 52.3165340374674], [6.65014881806103, 52.3165343074298], [6.6500342423493, 52.316536691089], [6.64985927469209, 52.3165430608518], [6.64985114133489, 52.3165433571681], [6.64978623451784, 52.3165469718011], [6.64972345545906, 52.3165504674933], [6.64966846993649, 52.316553528457], [6.64962711013143, 52.3165565328613], [6.64953185680147, 52.3165634512006], [6.64938810635826, 52.3165760513239], [6.64923739088313, 52.3165916658359], [6.64923731067183, 52.316591681973], [6.649136551251, 52.3166117678798], [6.64906682205292, 52.3166256681177], [6.648897683725, 52.3166593852219], [6.64843925881532, 52.3167507701944], [6.64836953064524, 52.3167646700065], [6.64836457911694, 52.3167656567602], [6.64830736817086, 52.3167767740194], [6.64822039761511, 52.3167925026263], [6.64810407386554, 52.3168117127962], [6.64796700670242, 52.3168313607273], [6.64782890250269, 52.3168480658769], [6.64772818589178, 52.3168580243651], [6.64768993231267, 52.3168618075413], [6.64765563730934, 52.3168644491778], [6.64755026285742, 52.3168725677604], [6.64737768810978, 52.31688160493], [6.64719915682154, 52.3168863494249], [6.64705838810611, 52.3168865977285], [6.64699735113078, 52.3168853992861], [6.64692406302806, 52.3168839601414], [6.64691769237556, 52.3168838347771], [6.64677723990113, 52.3168780641499], [6.64663720252214, 52.3168692930058], [6.64649774778058, 52.3168575321457], [6.64635904918506, 52.3168427959032], [6.64627048801357, 52.3168314220609], [6.64622127445474, 52.3168251013711], [6.64619890933034, 52.3168217252344], [6.64608459146077, 52.3168044710342], [6.64594916668363, 52.3167809300898], [6.64581516521254, 52.3167545064472], [6.64568274933043, 52.3167252325404], [6.64565929146887, 52.3167194715541], [6.64557144792514, 52.3166978999827], [6.64555777378942, 52.3166945417646], [6.64555208288688, 52.3166931443833], [6.64553549253864, 52.3166889453052], [6.64550359416146, 52.316680871466], [6.64539856689128, 52.316654289029], [6.64534907752893, 52.316644020389], [6.64528228175094, 52.3166301606803], [6.64526524825818, 52.3166266260502], [6.64519244674777, 52.3166146980582], [6.64514001435951, 52.3166061073786], [6.64512383168158, 52.3166034562497], [6.64503362707636, 52.316592184368], [6.64503256288128, 52.3165920518733], [6.6450079756875, 52.3165889796049], [6.64489660955348, 52.3165787543605], [6.64487415010796, 52.3165774257007], [6.64486842910432, 52.3165770874735], [6.64479544869558, 52.3165727673623], [6.64477891741121, 52.3165717890931], [6.64475732547001, 52.3165712089274], [6.64468338294532, 52.3165692207588], [6.64466641470659, 52.3165687648702], [6.64459996733924, 52.3165691661058], [6.64455727831451, 52.3165694242481], [6.64454255346539, 52.3165695134619], [6.64452754873634, 52.3165701818253], [6.64443568483007, 52.3165742726112], [6.6443909416139, 52.3165762648853], [6.64433176266629, 52.3165811504195], [6.64431463470272, 52.3165825649254], [6.64427376167208, 52.3165859389031], [6.64419618473851, 52.3165945256096], [6.64413974282119, 52.3166020596688], [6.6441191588584, 52.3166048079622], [6.64406831082113, 52.3166121800341], [6.64342610945226, 52.3167052909049], [6.64335475390867, 52.3167156365386], [6.6429951695686, 52.3167677696007], [6.64293574520221, 52.3167731190581], [6.64285946766854, 52.316778505492], [6.64274459282347, 52.3167835189398], [6.6427066784314, 52.3167839549085], [6.64270619015674, 52.3167839600947], [6.64270579132582, 52.3167839643308], [6.64263287742254, 52.3167848016775], [6.64262944637953, 52.3167848408145], [6.64251434508388, 52.3167824677518], [6.64243182679877, 52.3167781081464], [6.642399604497, 52.3167764062888], [6.64213058883974, 52.3167578354079], [6.64197613867879, 52.3167471731341], [6.64193255634129, 52.3167441643369], [6.64190325259417, 52.31674214103], [6.64124746528299, 52.3166968660657], [6.64123631548335, 52.3166960962734], [6.64122594163508, 52.3166953802699], [6.64119773033648, 52.3166940723826], [6.64117443022347, 52.3166929928352], [6.64117225075033, 52.3166928919124], [6.64109088567759, 52.3166940399827], [6.64108175748195, 52.3166941691713], [6.6410652544686, 52.31669564489], [6.64103821322281, 52.3166980629439], [6.64099460455602, 52.3167019618825], [6.64089598811388, 52.3167190184988], [6.64089573561282, 52.3167190625248], [6.64082278461793, 52.3167380661662], [6.64081917806226, 52.3167390059798], [6.64081307614475, 52.3167411246059], [6.64078733072479, 52.3167500636269], [6.64074679891266, 52.3167641364807], [6.64074152516318, 52.3167664962054], [6.6406940961019, 52.3167877162711], [6.64067763750467, 52.3167950799461], [6.64064448979056, 52.3168128649835], [6.64062439450925, 52.3168256100817], [6.64059163769414, 52.3168463850856], [6.64059008149008, 52.3168473723637], [6.64058873402754, 52.3168483241702], [6.6405406692919, 52.3168822608963], [6.64010809366332, 52.3171876913419], [6.64006002104095, 52.3172216342406], [6.63962744594717, 52.3175270556623], [6.63957938121248, 52.3175609919823], [6.63957045912698, 52.3175672913899], [6.63951774473597, 52.3176035178218], [6.63941162455185, 52.31767174697], [6.63932876812251, 52.3177207742876], [6.63924319816384, 52.3177679867112], [6.63915493619126, 52.3178133669287], [6.63910151167151, 52.3178389428253], [6.63906417163609, 52.3178568185469], [6.63904318888854, 52.3178661597683], [6.63897098701958, 52.3178983029339], [6.63897017653718, 52.3178986378054], [6.63887550981377, 52.3179377630044], [6.63895084532497, 52.3179085511773], [6.63887285996065, 52.3179393452043], [6.63879793574629, 52.3179684258856], [6.63871991671247, 52.3179975123195], [6.63837800622779, 52.3181223206502], [6.63837782473345, 52.3181223863908], [6.6382900376411, 52.3181544307282], [6.63818260008749, 52.3181925166073], [6.63806284387005, 52.3182298563492], [6.63802095319247, 52.3182415372606], [6.6379841387426, 52.3182518026607], [6.63785669425994, 52.3182833943929], [6.63783547411741, 52.3182878642527], [6.63776612689081, 52.3183024692414], [6.63772962403292, 52.3183101569109], [6.63760044155571, 52.3183328068486], [6.63746950302968, 52.3183512829041], [6.63729280360603, 52.3183693376076], [6.63728083571145, 52.3183701041663], [6.63715916549729, 52.3183778968081], [6.63714318357179, 52.318378318387], [6.63712008279187, 52.318378928496], [6.63710939348773, 52.3183792105114], [6.63698019848403, 52.3183826205619], [6.63683853360764, 52.318380896739], [6.63671181743461, 52.3183753410642], [6.6365784628551, 52.3183652577165], [6.63644615300637, 52.3183509106408], [6.63639178685741, 52.3183431976393], [6.6363203482108, 52.3183330628055], [6.63631524985962, 52.3183323391616], [6.63618611133915, 52.3183095952314], [6.6360878212977, 52.318289320716], [6.63597576445755, 52.3182625893843], [6.63585304946428, 52.3182290528581], [6.63573336708515, 52.3181916253412], [6.6357094151224, 52.3181831395488], [6.63564593432947, 52.3181606471377], [6.63561704443674, 52.3181504112521], [6.63550440152719, 52.3181055231751], [6.63539574834888, 52.3180570827898], [6.63529137911366, 52.3180052245272], [6.63521635114564, 52.3179652054693], [6.63521600567779, 52.3179650212537], [6.63520428057996, 52.3179587675902], [6.63512846136646, 52.3179116216308], [6.63509663220751, 52.3178918293426], [6.6350779291602, 52.3178790831146], [6.63500678840326, 52.3178306041076], [6.63492229468289, 52.3177665798916], [6.63484338632726, 52.3176999348948], [6.63477027813473, 52.3176308493308], [6.63469805720719, 52.3175499522444], [6.63466286379261, 52.3175105299503], [6.63434612289385, 52.3171557270436], [6.63432808810262, 52.3171355256424], [6.63431032724144, 52.3171165123463], [6.63428591877571, 52.3170903836446], [6.63420938082181, 52.3170189663106], [6.63413578947216, 52.3169599168057], [6.63405599042643, 52.3169039771969], [6.63397915125488, 52.3168564934108], [6.63391168841595, 52.3168191218032], [6.63388930579384, 52.316807982721], [6.63383238607484, 52.3167796539248], [6.63383168546003, 52.3167793053628], [6.63374815657212, 52.3167423080438], [6.63363526019592, 52.3166988015456], [6.63355545936817, 52.3166720747763], [6.63350657584113, 52.3166572150943], [6.63342357011643, 52.3166344509728], [6.63335590082048, 52.3166180733511], [6.63328146077661, 52.3166022039163], [6.63324828832057, 52.316596207615], [6.63318842400945, 52.316585386209], [6.63317780838151, 52.3165838361048], [6.63309406456601, 52.3165716088527], [6.63259940672464, 52.316507804886], [6.63257337213504, 52.3165044468642], [6.63255758593243, 52.3165024109603], [6.6325325302602, 52.3164991792438], [6.63249663151335, 52.3164945489634], [6.63246077691364, 52.3164899236003], [6.63240784073539, 52.3164830952766], [6.63223454890092, 52.3164607429634], [6.63201148163764, 52.3164319690542], [6.63198003763326, 52.3165236717181], [6.63197019134286, 52.3165523899075], [6.63195511119203, 52.3165963657321], [6.63181939594189, 52.3169921515718], [6.63180431696298, 52.317036127359], [6.63169467763067, 52.3173558627052], [6.63166868739481, 52.3174319246547], [6.63165798525945, 52.3174632477449], [6.63165365966935, 52.3174759079669], [6.63151840133719, 52.3178717523643], [6.63150337196526, 52.3179157397138], [6.63145745105228, 52.3180501275632], [6.6314495936052, 52.3180728464055], [6.63144578228697, 52.3180838679655], [6.63137908731751, 52.3182796148338], [6.63136819332141, 52.3183115906878], [6.63136089086713, 52.3183330236964], [6.63135443406518, 52.3183519723278], [6.63135320032737, 52.3183555780789], [6.63121713000087, 52.3187513182137], [6.63120201159381, 52.3187952898211], [6.63108210764829, 52.3191440260298], [6.63106594596777, 52.3191910305782], [6.63105082726559, 52.3192350021634], [6.63103313562213, 52.319286456908], [6.63102540054389, 52.3193089515073], [6.63099470840804, 52.3193982621263], [6.63091481199965, 52.3196307502533], [6.63091285765735, 52.3196364390602], [6.63089970035938, 52.3196747226379], [6.6308965551754, 52.3196838756162], [6.63089487417862, 52.3196887975113], [6.63088435438377, 52.3197195990474], [6.63087924538347, 52.3197344696946], [6.6307637957663, 52.3200704841679], [6.63074868826813, 52.320114457832], [6.63064320896556, 52.3204214512211], [6.63062654507959, 52.3204769804176], [6.6306149136772, 52.3205104758286], [6.63059965276174, 52.3205544290593], [6.63046229423297, 52.3209500027354], [6.63044703301968, 52.3209939559436], [6.6303096718098, 52.3213895294173], [6.63029441029861, 52.321433482603], [6.63029065560857, 52.3214442940834], [6.63027690056949, 52.3214826944167], [6.63015878360134, 52.3218292794034], [6.63014379267995, 52.321873267471], [6.6300598026103, 52.3221197096165], [6.63000887003638, 52.3222691564177], [6.62999387882219, 52.3223131444635], [6.62997642985324, 52.3223643411728], [6.62996311066405, 52.3224010380223], [6.62989651051321, 52.3226007872422], [6.62986356140632, 52.3226996087198], [6.62985794018549, 52.3227087813974], [6.62985093567825, 52.3227202085861], [6.6298323681181, 52.3227508959461], [6.62982586533987, 52.3227616437108], [6.62973131950845, 52.32291790736]]]}, "properties": {"key": 4, "source_names": ["XL BUSINESSPARK TWENTE (RBT)"], "ha": 184.8}}, {"type": "Feature", "geometry": {"type": "Polygon", "coordinates": [[[5.8176235, 51.8241068], [5.8175276, 51.8242075], [5.817356, 51.824246], [5.8169154, 51.8246841], [5.8167049, 51.8247798], [5.8157905, 51.8263116], [5.8205954, 51.8268947], [5.8207335, 51.8264579], [5.8207764, 51.8264181], [5.8217622, 51.8260033], [5.8217917, 51.8260223], [5.8218882, 51.8259925], [5.8218668, 51.8259676], [5.822371, 51.8257658], [5.8243552, 51.8249411], [5.8223898, 51.8230878], [5.8212726, 51.8222149], [5.8205679, 51.8218931], [5.8186085, 51.8230014], [5.8182478, 51.8233902], [5.817993, 51.823735], [5.8176235, 51.8241068]]]}, "properties": {"key": "NXP", "source_names": ["NXP Semiconductors"], "ha": 18.0}}]}