{"type": "FeatureCollection", "features": [{"type": "Feature", "geometry": {"type": "Polygon", "coordinates": [[[6.8744773361625, 53.4211380465709], [6.87409733876, 53.4213190437301], [6.87360534221133, 53.4219650364792], [6.87282734737394, 53.4230910234167], [6.87066136250829, 53.4259019930133], [6.86899337498009, 53.4279339712581], [6.86784838437516, 53.4293729558988], [6.86700839003165, 53.4305019447965], [6.86604039741198, 53.431549933068], [6.86498340705202, 53.4326429219689], [6.86391841691534, 53.4333849144239], [6.86266742706425, 53.4340029076123], [6.85943045282737, 53.4352668911631], [6.85413149765691, 53.4373558644568], [6.85232151279701, 53.4378118573647], [6.85005153087238, 53.4382598491503], [6.84757855270276, 53.4386508410883], [6.84465757723853, 53.4391488315342], [6.84150560339583, 53.4395748220286], [6.83800163540222, 53.4401168108818], [6.83286568142241, 53.4409927951468], [6.82899771663681, 53.4415717838357], [6.82149778561917, 53.4425857626419], [6.81865781220845, 53.4428697559448], [6.81709182640777, 53.4429827515963], [6.8164388324837, 53.4430297503435], [6.81323586252278, 53.4433857419291], [6.81008289231029, 53.4437937332477], [6.80862890550809, 53.4438967298668], [6.8074129173228, 53.4439847270633], [6.80503893888517, 53.4440877218207], [6.803000957807, 53.4442287172601], [6.80157797146672, 53.4444277125606], [6.79960698906865, 53.4446257074097], [6.7977220064426, 53.4447187030752], [6.79586302536467, 53.4447606993977], [6.79374204515317, 53.4446096961688], [6.79212206058763, 53.4445756935727], [6.7880360979674, 53.4444156869067], [6.78952008429352, 53.4457246793019], [6.79199306309002, 53.4479446674581], [6.794301042854, 53.4500866591907], [6.79571003117206, 53.4514296555744], [6.79619802681865, 53.4518476541243], [6.79683302053519, 53.4523916532603], [6.79801401132265, 53.4537956479311], [6.79873700453553, 53.454415646196], [6.80026799103411, 53.4551856455142], [6.80220797468226, 53.4562446441671], [6.80422595872309, 53.4573886432073], [6.8071359333488, 53.4589296436497], [6.80962891342905, 53.460276644104], [6.81198789361056, 53.461596644138], [6.8135678808785, 53.4623946445213], [6.81420087502297, 53.4624186452059], [6.81541486504113, 53.4622366487849], [6.81653185546451, 53.46202265205], [6.8179328431264, 53.4616566563377], [6.81935183124946, 53.4612446616788], [6.8214208130804, 53.4607306681153], [6.8236907933852, 53.4602096748631], [6.82683576477692, 53.4593546848781], [6.82978273791978, 53.4586836941605], [6.83190871871744, 53.4581747005272], [6.83251371424434, 53.4577857034022], [6.83312570773098, 53.4572707066203], [6.83347370329793, 53.4565737106597], [6.83368369966608, 53.4556767153339], [6.83370369769426, 53.4544317206368], [6.83340669830806, 53.4535667247576], [6.83285270210539, 53.4527847267049], [6.83165771016988, 53.4512387317932], [6.81283887869575, 53.4540726780883], [6.81117588920409, 53.4503906939278], [6.82035380448486, 53.4488897194023], [6.82049380454832, 53.4491277187932], [6.82914472601412, 53.4477747445862], [6.82824773067108, 53.4458657552756], [6.81949281120398, 53.4472427291016], [6.81872581472437, 53.445491738711], [6.81868781523132, 53.4450967408173], [6.81920680972908, 53.4447257445682], [6.82032379944429, 53.4445287477295], [6.82306777424754, 53.4442387552586], [6.82687073928241, 53.4437627658139], [6.83106270087327, 53.4430717780285], [6.83373967659734, 53.4428167851399], [6.83504566532595, 53.4429157870844], [6.83601965738305, 53.443207787009], [6.8366966526419, 53.4434547870997], [6.83775964293656, 53.4434127894716], [6.84044061857171, 53.4429217981739], [6.84413558647683, 53.4423208099971], [6.84601757074868, 53.4420818148708], [6.8464965668446, 53.4420558167774], [6.84715156261978, 53.4422288170667], [6.84794055564755, 53.4423608172818], [6.84835855241785, 53.4425878175123], [6.84882055085706, 53.4435418126264], [6.84917854941616, 53.444525807374], [6.84908255226915, 53.4449458045614], [6.84858455724739, 53.4453458018465], [6.84790056244323, 53.4456197983752], [6.84630457608553, 53.445833793771], [6.83956263423606, 53.4468817731429], [6.83917163812728, 53.4469947711818], [6.83912863770003, 53.4472017696201], [6.84000763459851, 53.4492137605668], [6.84167862773122, 53.4527247471008], [6.84249562470118, 53.4545207407309], [6.84276962405986, 53.4551837386944], [6.84295462279873, 53.4552977383911], [6.84380361579082, 53.4551587406145], [6.8465155935537, 53.454667749507], [6.84815257843159, 53.4542027554281], [6.85212754496498, 53.4531807693449], [6.85497752141076, 53.4524987788888], [6.85760749984281, 53.4518247878404], [6.86043247653467, 53.450901799438], [6.86265545724017, 53.4500298095735], [6.86446544142862, 53.4491438178171], [6.866823422551, 53.4479268309886], [6.86899040529217, 53.4467108434443], [6.87206038183669, 53.4448448628167], [6.87458336034299, 53.4432758778093], [6.87760133689398, 53.4416458955491], [6.87964432129524, 53.4404889081073], [6.88108830998528, 53.4395419190356], [6.8817283052389, 53.4386699260621], [6.88194430211754, 53.4376519342008], [6.88201030001114, 53.4368259397784], [6.88157730157049, 53.435905944481], [6.88110030229206, 53.4351509475471], [6.88094630309973, 53.4347749498444], [6.88102930101491, 53.4341879539662], [6.88082530218924, 53.4340569545153], [6.8806543028692, 53.4337549563239], [6.87989030532668, 53.432217964407], [6.87902030954725, 53.4306569751592], [6.87818431504181, 53.4289079872839], [6.87689632169442, 53.4266970024385], [6.87627232515447, 53.4254050114868], [6.87554532861173, 53.4242000201462], [6.8750353316766, 53.42328602726], [6.87463633502042, 53.4226340321364], [6.87436433714557, 53.4220810371035], [6.87449633624531, 53.4215400425998], [6.87452733666846, 53.4212590453801], [6.8744773361625, 53.4211380465709]]]}, "properties": {"key": 1, "source_names": ["EEMSHAVEN"], "ha": 838.6}}, {"type": "Feature", "geometry": {"type": "Polygon", "coordinates": [[[6.53173478871819, 53.2350596300649], [6.53011840363869, 53.2348334758944], [6.52902714932237, 53.2369574160575], [6.526442842361, 53.2397235460528], [6.52647087433596, 53.2407860961829], [6.52518635991274, 53.242464961821], [6.52351389005389, 53.2439421693913], [6.52307474697209, 53.2453910181853], [6.52161672097736, 53.2473734198852], [6.52041361844914, 53.2484152541229], [6.51958235920596, 53.2489665785727], [6.51926722065242, 53.2492352532096], [6.51880874735632, 53.2501816103236], [6.52141482377823, 53.2504188341682], [6.52384763534939, 53.2502750616314], [6.5239955160749, 53.2521495571691], [6.5310301551618, 53.2501141524872], [6.5322757296178, 53.2492447868183], [6.53350593124572, 53.2485567158998], [6.53479231351576, 53.247711088542], [6.53538210858695, 53.2471740443119], [6.53628304795242, 53.2467064843036], [6.53707282523885, 53.2461192090352], [6.53784649151187, 53.2449282083616], [6.53873451776401, 53.2439553446713], [6.54095122082233, 53.2425210067066], [6.5412149748839, 53.2421926271328], [6.54238141891281, 53.2398866912588], [6.54310335069675, 53.2375246337473], [6.53854059238244, 53.2365522193169], [6.53456710485031, 53.2355032757153], [6.53173478871819, 53.2350596300649]]]}, "properties": {"key": 2, "source_names": ["ZERNIKE SCIENCE"], "ha": 159.2}}, {"type": "Feature", "geometry": {"type": "Polygon", "coordinates": [[[6.46499600371497, 53.2073565930307], [6.46981635513092, 53.2080529525532], [6.48228504726438, 53.2108855572584], [6.48741354094915, 53.2118048572605], [6.49029864018324, 53.2067804539881], [6.48950685004514, 53.2061947180576], [6.48975388681685, 53.2051398913569], [6.48740174483732, 53.2046028906544], [6.48147885289576, 53.2040531664087], [6.47706543703523, 53.2033374858038], [6.47492869948493, 53.2033568724605], [6.4728837957203, 53.2030281611951], [6.47108197734991, 53.2023650874748], [6.46461290819343, 53.2010646222145], [6.46419046819042, 53.2012646745538], [6.46414211983575, 53.2023520866873], [6.46451993587213, 53.202378889079], [6.46648408927103, 53.206527986641], [6.46499600371497, 53.2073565930307]]]}, "properties": {"key": 3, "source_names": ["WESTPOORT"], "ha": 113.1}}, {"type": "Feature", "geometry": {"type": "Polygon", "coordinates": [[[6.8569865, 53.4197078], [6.8555618, 53.4192622], [6.8557594, 53.419028], [6.8542706, 53.4185579], [6.853763, 53.4191254], [6.8537495, 53.4191463], [6.8537464, 53.4191685], [6.8537516, 53.4191894], [6.8537712, 53.419211], [6.8537909, 53.4192276], [6.8541496, 53.4193613], [6.8541807, 53.4193761], [6.8542065, 53.4194199], [6.8542199, 53.4194636], [6.8542199, 53.4194883], [6.8542168, 53.4195104], [6.8542075, 53.4195339], [6.8541393, 53.419614], [6.8539347, 53.4198678], [6.8542226, 53.420159], [6.8552915, 53.4204577], [6.8548104, 53.4209967], [6.8552588, 53.4214191], [6.8594894, 53.4228042], [6.8593208, 53.4229803], [6.8594827, 53.4230327], [6.8595578, 53.4230327], [6.8597858, 53.4231062], [6.859834, 53.423143], [6.8607997, 53.4234403], [6.8606713, 53.4235871], [6.8610094, 53.4236911], [6.8601072, 53.4247291], [6.859851, 53.4250385], [6.8598138, 53.4250819], [6.8601515, 53.4251819], [6.8601722, 53.4251594], [6.861655, 53.4256203], [6.860991, 53.426397], [6.8616327, 53.4269919], [6.8654336, 53.4281382], [6.8651575, 53.4282581], [6.8652237, 53.4283142], [6.865339, 53.428412], [6.865386, 53.4284519], [6.865419, 53.4284799], [6.8654709, 53.4284875], [6.8655408, 53.4284814], [6.8656165, 53.4284697], [6.8658081, 53.4283596], [6.866107, 53.4280247], [6.8682301, 53.4256157], [6.8700849, 53.4235109], [6.8700561, 53.4235019], [6.8699467, 53.4234677], [6.8631375, 53.421337], [6.8626189, 53.4211743], [6.8625958, 53.4211675], [6.8625164, 53.4212536], [6.8626196, 53.4212886], [6.8624941, 53.4214305], [6.8569865, 53.4197078]]]}, "properties": {"key": "Google", "source_names": ["Google Datacenter Eemshaven"], "ha": 43.4}}, {"type": "Feature", "geometry": {"type": "Polygon", "coordinates": [[[6.8603188, 53.4378449], [6.8599191, 53.4364755], [6.8599107, 53.4364468], [6.8599027, 53.4364188], [6.8597701, 53.4359573], [6.8559048, 53.43724], [6.855509, 53.437357], [6.8541411, 53.4378187], [6.8534884, 53.4380433], [6.8533793, 53.4380808], [6.8533731, 53.4380824], [6.8524218, 53.43833], [6.8516251, 53.4384834], [6.8495089, 53.4388094], [6.8495719, 53.438939], [6.8503651, 53.4406824], [6.8494857, 53.4408013], [6.8496835, 53.4412713], [6.850814, 53.4410633], [6.8507705, 53.4409863], [6.8520318, 53.4407631], [6.8531027, 53.4405558], [6.853705, 53.4404344], [6.8542507, 53.4402997], [6.8546953, 53.4401668], [6.8552618, 53.4399746], [6.8575978, 53.4390836], [6.8575666, 53.439044], [6.8603188, 53.4378449]]]}, "properties": {"key": "QTS", "source_names": ["QTS Eemshaven Netherlands Data Center", "Nieuwbouw datacenter QTS"], "ha": 18.0}}]}