{"type": "FeatureCollection", "features": [{"type": "Feature", "geometry": {"type": "Polygon", "coordinates": [[[5.80933197549386, 51.8254626187659], [5.81015286444534, 51.825566742001], [5.81073432402002, 51.8256404869026], [5.81074663953491, 51.8256420427939], [5.81229261678355, 51.8258794583691], [5.8128652580586, 51.8259437859277], [5.81365719173075, 51.826032733274], [5.81368405614519, 51.8260357455326], [5.81422970258867, 51.826106906908], [5.8152024269914, 51.8262337544992], [5.81579291382573, 51.8263107581467], [5.81586027465169, 51.8263195362264], [5.8172902720707, 51.8264892849361], [5.81814744251352, 51.826588739705], [5.81837056823758, 51.8266140084136], [5.81838897209788, 51.8266024468639], [5.81838903280603, 51.8266024241694], [5.81838910240687, 51.8266024212168], [5.81876079418825, 51.8266455407196], [5.81876087862206, 51.8266455718683], [5.81876091253627, 51.8266456292696], [5.8187610695553, 51.8266609009876], [5.81904327823613, 51.8266945264514], [5.81916011330159, 51.8267084415084], [5.82033164870209, 51.8268479963799], [5.8205975432886, 51.826879318028], [5.82148486316486, 51.8269838233172], [5.8216234387517, 51.8270001451749], [5.82169502867221, 51.827009353653], [5.82198430784873, 51.8270465448266], [5.82208227428713, 51.8270606797742], [5.82221247505578, 51.8270794678841], [5.82238546979851, 51.8271103122912], [5.82239483088675, 51.8271119853424], [5.8228799824655, 51.8271882588867], [5.82294987690541, 51.8271101568625], [5.8231037504381, 51.8269501437252], [5.82339849536272, 51.8265664837349], [5.82367596286935, 51.8262068204504], [5.82380157154095, 51.8261048957614], [5.82390989458184, 51.8259953582925], [5.82406367436131, 51.8258955700721], [5.82430784268565, 51.82576319442], [5.8246928375328, 51.8255699342991], [5.82502457504517, 51.8253876347002], [5.8250919870787, 51.825345998186], [5.82511197196818, 51.8253336632569], [5.82515613744098, 51.8253063800449], [5.82519696345309, 51.8252811631593], [5.82521328033031, 51.8252681363237], [5.82526917144225, 51.825223497463], [5.82549836121736, 51.8250532584177], [5.82554788480999, 51.8250076760713], [5.82576660841672, 51.8248063368774], [5.82597692998955, 51.8245730693155], [5.82598139613961, 51.8245624192383], [5.8260071523097, 51.8245010569661], [5.82599884689758, 51.824443565899], [5.82597896309867, 51.824383743869], [5.82597893964574, 51.824383718789], [5.82590513248295, 51.8243456515878], [5.82578875501175, 51.8243029491839], [5.82502988519111, 51.8240761775544], [5.82464604841391, 51.8239553764641], [5.82427527280313, 51.823835037851], [5.82397672471349, 51.8237402807142], [5.82353486068876, 51.8236125096974], [5.82351988965724, 51.8236078374978], [5.82346898249342, 51.8235919646099], [5.82340402101959, 51.8235717126931], [5.82339636891284, 51.823569322825], [5.82325939812859, 51.8235080731951], [5.8232477028083, 51.8235016450103], [5.82315637122071, 51.823451415646], [5.82313041392221, 51.8234371306463], [5.82312353088952, 51.8234333451366], [5.82305447127864, 51.823385207612], [5.82296859886474, 51.8233099972706], [5.82287255546256, 51.8231882733934], [5.82271609463467, 51.8230895138901], [5.82264725336771, 51.8230457810124], [5.82234444245287, 51.8228651848995], [5.8218749856078, 51.8225834935625], [5.82174001899489, 51.8225025126776], [5.82069360749224, 51.8219031814685], [5.82060751234981, 51.8218538561162], [5.82055202172141, 51.8218135507262], [5.82038741998392, 51.8216939833972], [5.82032915016386, 51.8216516626225], [5.82025867074693, 51.8216087541467], [5.82020610327152, 51.8215767337001], [5.81984111185227, 51.8213516441098], [5.81954611239584, 51.8211663568144], [5.81933434229294, 51.8210356365318], [5.81922739246205, 51.8209696060371], [5.81896984845596, 51.820804195639], [5.81844670039019, 51.8204848837793], [5.81839099814005, 51.8204508786144], [5.81832209563538, 51.8204088251684], [5.81806778157456, 51.8202666711606], [5.81798855766599, 51.820222397561], [5.81798212697093, 51.8202187988451], [5.817923230359, 51.8201858748278], [5.81790780269949, 51.8201772567542], [5.81790777786305, 51.8201772379697], [5.81767756279145, 51.819950821115], [5.81737187518691, 51.8197487801462], [5.81733959843042, 51.8197488956192], [5.81733956078181, 51.8197489020493], [5.81722570490369, 51.819792434875], [5.81722567163175, 51.8197924439856], [5.81719346761072, 51.8197987120593], [5.8171934299363, 51.819798715793], [5.81711893653707, 51.8198005351051], [5.81711889735222, 51.8198005325523], [5.81706293220915, 51.8197922769939], [5.81706289149679, 51.8197922663571], [5.81698312366008, 51.8197632991929], [5.81669557502646, 51.8196208708431], [5.81659737150249, 51.8195722354429], [5.81635272587057, 51.8194556693257], [5.81626926806749, 51.8194113462523], [5.81530970739871, 51.8189283284268], [5.81520664850194, 51.818872552086], [5.81498697899375, 51.8187670672829], [5.81471983426569, 51.8186340321313], [5.81457384513584, 51.8185675690486], [5.81446912298662, 51.8185309781768], [5.81433961739818, 51.818500645434], [5.81423663328671, 51.8184835750235], [5.81407914073325, 51.8184574530524], [5.81393680872938, 51.8184349968929], [5.8125463816524, 51.8182281125989], [5.8124411568762, 51.818212450051], [5.81232548295297, 51.8181951447712], [5.81228337313028, 51.8182861814371], [5.81202310768869, 51.8189561531302], [5.81169146909229, 51.8197686719527], [5.81156590808205, 51.8200625381208], [5.81150415229035, 51.8202182343398], [5.81145491993117, 51.820342327579], [5.81125665315533, 51.8208448352751], [5.81121352224764, 51.8209546955575], [5.81075446491053, 51.8221037690315], [5.81055613605984, 51.8225982390265], [5.8104787448553, 51.8228025935337], [5.8104093431854, 51.8229342015665], [5.8103339997617, 51.8230770638889], [5.81028685542611, 51.8231864735732], [5.81028336349972, 51.8231945937723], [5.80935804797805, 51.8254007683076], [5.80933197549386, 51.8254626187659]]]}, "properties": {"key": 1, "source_names": ["Winkelsteeg NXP"], "ha": 64.1}}, {"type": "Feature", "geometry": {"type": "Polygon", "coordinates": [[[5.82126573712161, 51.8144872894014], [5.82081367824141, 51.8147090279019], [5.82060395054886, 51.8148119038704], [5.82058889561079, 51.8148192761698], [5.82058067593356, 51.8148226143279], [5.82035523416765, 51.8149142044983], [5.8202856050795, 51.8149424969069], [5.82006917644512, 51.8150304308562], [5.82006641722017, 51.815031546631], [5.82006222784203, 51.8150332429509], [5.81999388541284, 51.815061001011], [5.81999403754198, 51.8150769091574], [5.82013231763828, 51.8152248610916], [5.8207246952785, 51.8157996137394], [5.82066751403156, 51.8158260904824], [5.82062048236237, 51.8158472165722], [5.82059161367532, 51.8158614801869], [5.82054767291026, 51.8158782084402], [5.82014503027771, 51.816031422109], [5.81961634198279, 51.8162329901406], [5.81948905315221, 51.8162815121352], [5.81923637844758, 51.8163774520985], [5.81892737579391, 51.8164947848728], [5.81880963524924, 51.8165394868024], [5.81771392053612, 51.8169555128436], [5.81762071475787, 51.8169954665118], [5.81741860222971, 51.8170821034088], [5.81714738943514, 51.8171953467928], [5.81630997950021, 51.8176743556924], [5.81624553034035, 51.8177112106987], [5.8155457148149, 51.8181115168847], [5.81602357910587, 51.8183200217562], [5.81645241089337, 51.8185751621258], [5.81699439208619, 51.8189355468619], [5.81747356062353, 51.8192581366927], [5.81844441579295, 51.8198758414948], [5.81874287225971, 51.8200711895186], [5.81924915475637, 51.8203927239723], [5.8193648271677, 51.8203066800525], [5.81937293896942, 51.8203088392818], [5.81947903307843, 51.820371915596], [5.81984805015705, 51.8205913080498], [5.81985856787818, 51.820583991257], [5.81996704446162, 51.8205084709442], [5.82007312471941, 51.8205625767285], [5.82010408820131, 51.820541159683], [5.82033156108586, 51.8206678773091], [5.82029960099376, 51.8206901789674], [5.82018944108737, 51.8207670329531], [5.82011603443727, 51.8208182328086], [5.82004690679856, 51.8208664596069], [5.81998871125764, 51.8208942785694], [5.81998882478007, 51.8208943945509], [5.81999190596896, 51.8208965583825], [5.81999590711202, 51.8208993659865], [5.8200425378509, 51.8209324497686], [5.82004811213391, 51.8209316512291], [5.82010384577153, 51.8209731042382], [5.82018876607811, 51.821036240143], [5.82023438879983, 51.8210686188321], [5.82029606721495, 51.8211099805731], [5.82067555237065, 51.8213399588075], [5.82072696578972, 51.8213711204206], [5.82109466696338, 51.8215939591018], [5.82113998245299, 51.821621421883], [5.82139299735535, 51.8217747539126], [5.82219550170727, 51.8222610834437], [5.82220132316133, 51.8222646122825], [5.82224065812532, 51.8222884565058], [5.82228010977225, 51.8223123632021], [5.82228387408016, 51.8223146502761], [5.82233944790946, 51.8223483304867], [5.82307122878043, 51.8227608426125], [5.82367838254722, 51.8231030904024], [5.82395131181631, 51.8229255607767], [5.82449396682936, 51.8225758542972], [5.82470093985719, 51.822443436794], [5.82491605625766, 51.8223058174425], [5.8249545875284, 51.8223274076667], [5.82541603204863, 51.8220453446316], [5.82477906841409, 51.8216757903704], [5.82483182331671, 51.8216412304804], [5.82489634480674, 51.8215989774371], [5.82474815418857, 51.8214941858468], [5.82339363415465, 51.8205363628083], [5.82338594725473, 51.8205309264264], [5.82347727185774, 51.8204771949748], [5.82386066837033, 51.8202179148159], [5.82394903343714, 51.8201587739705], [5.82477302762736, 51.8196072507511], [5.82504147241294, 51.8194275753311], [5.82535627863234, 51.8192175943599], [5.82584915988189, 51.8195200937319], [5.82587349588023, 51.8195318651884], [5.82658291696341, 51.8190900331317], [5.82690760752739, 51.8188877252564], [5.82723999092278, 51.8186833561878], [5.82737008795175, 51.8186017826097], [5.82767389907494, 51.8184037216431], [5.82797686442041, 51.8182207277443], [5.82634373053035, 51.8170308066734], [5.82633672167292, 51.8170259432039], [5.8261560863062, 51.8168999183226], [5.82615823971569, 51.8168986249048], [5.82622812777709, 51.8168571689252], [5.82514253828969, 51.816042326381], [5.82508791654832, 51.8160045541651], [5.82507191394023, 51.8159934772326], [5.82498660119241, 51.8159344540248], [5.82487543077188, 51.8158575503713], [5.82472447376868, 51.8157531196342], [5.82320317305621, 51.814665978929], [5.82227194869943, 51.8139925915233], [5.82225878365156, 51.8139988851466], [5.82213550605286, 51.8140578757381], [5.82152141914832, 51.8143618606142], [5.82135085399149, 51.8144455372046], [5.82126573712161, 51.8144872894014]]]}, "properties": {"key": 2, "source_names": ["Winkelsteeg Compaq"], "ha": 39.5}}, {"type": "Feature", "geometry": {"type": "MultiPolygon", "coordinates": [[[[5.76614029039441, 51.8194276952723], [5.76614025595701, 51.819427739427], [5.766140190919, 51.8194277666027], [5.76611360835928, 51.8194329202577], [5.76546550345772, 51.81957186348], [5.76539577932882, 51.8195868655616], [5.76529955933787, 51.8196056293807], [5.765257485044, 51.8196126772611], [5.76519680430869, 51.8196216817165], [5.76516074323724, 51.8196261358719], [5.76515791780184, 51.8196266424967], [5.76509699458875, 51.819632681945], [5.76503900823241, 51.8196378400118], [5.76494508122426, 51.8196585282118], [5.76438181982889, 51.8197825766626], [5.76405388553109, 51.819860069615], [5.76373913557933, 51.8199347283674], [5.76375633605243, 51.8199592798552], [5.76397184731224, 51.8202270260365], [5.76418505826168, 51.8205062502693], [5.76438705798786, 51.8207592441688], [5.76463306867481, 51.8210653560753], [5.76463308356293, 51.8210654018684], [5.76463305927551, 51.82106544599], [5.76463300151625, 51.8210654767368], [5.7645865469231, 51.8210792735248], [5.76420340677654, 51.8211921883599], [5.76418297835376, 51.8211985280225], [5.76391884436318, 51.8212804353431], [5.7637581761647, 51.8213302624113], [5.76356489923938, 51.8213901891569], [5.76338442040623, 51.8214424711701], [5.7627823953237, 51.8216360441958], [5.76264974676624, 51.8216786880403], [5.7624709546134, 51.821738521621], [5.76213452436731, 51.8218396310461], [5.76173703602613, 51.8219590733731], [5.76100205397968, 51.8221799295217], [5.76047338745017, 51.822338795819], [5.76031073306408, 51.8223826471671], [5.76005882738807, 51.8224505747485], [5.75934019714615, 51.8226371314505], [5.75913135719837, 51.8226827098082], [5.75801491652838, 51.8229263836546], [5.75765182844089, 51.823005354123], [5.75749749418655, 51.823038560358], [5.75716704840279, 51.8231518792955], [5.75711375629281, 51.8231874710007], [5.75715148811144, 51.8232231788923], [5.75731304738668, 51.823414149396], [5.75737648391288, 51.8235372488127], [5.75737650583989, 51.8235372694169], [5.75744816212585, 51.8235745701901], [5.75752864775905, 51.8236011135128], [5.75752868551562, 51.8236011187866], [5.75768911396721, 51.8235952563018], [5.75768917348814, 51.8235952624055], [5.75786787460036, 51.8236375828513], [5.75803761877859, 51.8236745760617], [5.75803766386902, 51.8236745911994], [5.7581727457878, 51.8237434815323], [5.75828842708624, 51.8238024640776], [5.75844036265862, 51.823868696772], [5.75845782205234, 51.8238312917891], [5.75845785367374, 51.823831256634], [5.75845790859905, 51.82383123309], [5.75859090593996, 51.8237987669143], [5.76213224053185, 51.8233995554042], [5.7622585474509, 51.8233853179541], [5.76307889675445, 51.8233094872891], [5.76371526352625, 51.8232563088644], [5.76404086321795, 51.8232311641153], [5.76427431423345, 51.8232131282878], [5.7647278847674, 51.8231838664905], [5.76482450264754, 51.8231787463273], [5.76525403457386, 51.8231560046786], [5.76578728871886, 51.8231380318031], [5.76654930442172, 51.8231020583975], [5.7668932476192, 51.8230869224845], [5.76774129193293, 51.8230612780156], [5.76822255994895, 51.8230573411913], [5.76836288999374, 51.8230567769572], [5.76873305675047, 51.8230552936765], [5.76997484423145, 51.8230512619559], [5.77068837286262, 51.8230500346406], [5.77118451928421, 51.8230647599043], [5.77136131685527, 51.8230658149921], [5.77142450194505, 51.8230508933025], [5.77146126201283, 51.8230295155443], [5.77147947717302, 51.8230000195549], [5.77151930717337, 51.8228656379701], [5.77154628281233, 51.8227904780036], [5.77159572649404, 51.8227085479383], [5.77166095198976, 51.8226249301766], [5.77175124158981, 51.8225363228865], [5.7717969084903, 51.822504847833], [5.77185615963876, 51.8224640260288], [5.77198740543117, 51.8223850990386], [5.77211872112389, 51.8223127058206], [5.77228165619721, 51.8222385820914], [5.77247886517074, 51.8221610736562], [5.77313507242542, 51.8219145094379], [5.77363336562537, 51.8217239022333], [5.77379373665825, 51.8216579571381], [5.77389360551443, 51.8216118422623], [5.77396974149765, 51.8215674370396], [5.77411123530212, 51.8214541235693], [5.77420797320801, 51.8213507830197], [5.77433078778072, 51.8212130032902], [5.77440240529148, 51.8211048369709], [5.77450387360416, 51.8209393335049], [5.77457393464298, 51.8208017395381], [5.77462074070744, 51.8206971782654], [5.77446077374954, 51.8206650379347], [5.77399387773548, 51.8205712125913], [5.77379268037792, 51.8205293791632], [5.77337559707928, 51.8204426676574], [5.77300540675183, 51.820364402233], [5.7724867617002, 51.8202547418395], [5.77181843913375, 51.8201163055133], [5.77176714734939, 51.8201164725127], [5.77176707909061, 51.8201164619506], [5.77166844349027, 51.8200845188944], [5.77149093214874, 51.8200270093025], [5.77059827617088, 51.8198466945097], [5.76953344754275, 51.8196316017176], [5.76888674633948, 51.8195025326798], [5.76864201121081, 51.8194536945279], [5.76858913163358, 51.8194462813067], [5.76856088764545, 51.8194422389982], [5.76849874737406, 51.819439097075], [5.76830023460295, 51.8194397523297], [5.76812221092672, 51.8194671172248], [5.76772315366895, 51.8195470973573], [5.76754920832247, 51.819577800377], [5.76738728923656, 51.8195933815051], [5.76731166861498, 51.8195936263929], [5.76721976309242, 51.8195838960886], [5.76721973404015, 51.8195838907898], [5.76716416980537, 51.8195701065334], [5.76713313928136, 51.819562405182], [5.76708807118314, 51.819548070919], [5.7670654432493, 51.8195408627385], [5.76698681132815, 51.8195026246089], [5.76698677046105, 51.8195025941806], [5.76697521970073, 51.8194881512322], [5.76695327187925, 51.8194607159234], [5.76694783686404, 51.8194556730428], [5.76694781173844, 51.8194556173958], [5.76695006302575, 51.8194339838984], [5.76694867088976, 51.8194205093364], [5.76694043685908, 51.8194070623412], [5.76692794892886, 51.8193952533435], [5.76690643927011, 51.8193777173792], [5.76687074295579, 51.8193563254958], [5.76687070224046, 51.8193563130439], [5.76685868036842, 51.8193554819156], [5.76673688916577, 51.8193583195335], [5.76667786146533, 51.8193601484107], [5.76658393967384, 51.8193659804431], [5.76651021062116, 51.8193718962426], [5.76642815511325, 51.8193798955009], [5.7663937968503, 51.8193831166979], [5.76630174351773, 51.8193943445133], [5.76621300806666, 51.8194072333751], [5.76620491655275, 51.8194086248929], [5.76615691818866, 51.8194208884748], [5.76613840238581, 51.8194247237311], [5.76614028128394, 51.8194276467641], [5.76614029039441, 51.8194276952723]]], [[[5.7573777306547, 51.8219823633248], [5.757394279662, 51.8220041574447], [5.75739429310742, 51.822004205041], [5.75739426301814, 51.8220042500783], [5.75739420088673, 51.8220042790376], [5.75703040712567, 51.8220918364848], [5.75686046615021, 51.8221744749919], [5.75686043868076, 51.8221744858647], [5.75668685324664, 51.8222264243619], [5.75660915359009, 51.8222425254236], [5.75622651160249, 51.822321160944], [5.75628670251327, 51.8223937690316], [5.75628671321888, 51.8223938364112], [5.75628664547603, 51.8223938887576], [5.75628652260462, 51.8223939397795], [5.75628908502166, 51.8223970566888], [5.75673120761393, 51.8229326634003], [5.75684133128309, 51.8229300740135], [5.75732285002247, 51.8229184410198], [5.75752617818734, 51.822895614173], [5.75797036103677, 51.8228110690385], [5.75883713122102, 51.8226052345518], [5.75878075768642, 51.8225168978772], [5.75865483905968, 51.8223195873954], [5.75865478322051, 51.8223194999351], [5.75865475271335, 51.8223194941893], [5.75861044515707, 51.8223291381282], [5.75861033780322, 51.8223291357719], [5.7586102634385, 51.8223290883689], [5.75852912298111, 51.8222082595622], [5.75829648640199, 51.8218619079472], [5.75821777872571, 51.8217446176044], [5.75821774967681, 51.8217446127528], [5.75777296702614, 51.8218458810406], [5.75777289163436, 51.8218458848744], [5.75777282329486, 51.8218458644171], [5.75777278091482, 51.8218458259009], [5.75762331052954, 51.8215839061646], [5.75762328219493, 51.8215838999623], [5.75716349662114, 51.8216576631252], [5.75717014676444, 51.8216668253925], [5.7573777306547, 51.8219823633248]]], [[[5.74927200122997, 51.8255241591435], [5.7504562481217, 51.8253125373204], [5.75105548071521, 51.8252020348175], [5.75163938759706, 51.8250962958416], [5.75280421116772, 51.8248819961088], [5.7530581844037, 51.8248352275167], [5.75316892724022, 51.824814828475], [5.75321114741789, 51.8248070564266], [5.75321692646468, 51.8248059957156], [5.75424715151852, 51.8246162629117], [5.75454836986429, 51.8245611096665], [5.7556731746709, 51.8243627354577], [5.75626605415626, 51.8242581666978], [5.75629597374686, 51.8242512151736], [5.75638450543735, 51.8242306403662], [5.75646224873291, 51.8242143056308], [5.75653260299864, 51.8241916941412], [5.75659690107524, 51.8241629617029], [5.75665374100844, 51.8241287257575], [5.75670192710695, 51.8240897257901], [5.75674041892343, 51.8240467924769], [5.75676840000507, 51.8240008267807], [5.75678526652297, 51.8239528386833], [5.75679063656247, 51.8239038320548], [5.75678516814898, 51.8238578046764], [5.75676819565536, 51.8238098239932], [5.75674012757037, 51.8237638822753], [5.75670154077828, 51.8237209852996], [5.75668485083558, 51.8237075058369], [5.75668482140571, 51.8237074546956], [5.75668484418544, 51.8237074024908], [5.75668491207733, 51.8237073681207], [5.75678046481212, 51.8236838628019], [5.75673790434358, 51.8236396056874], [5.7566798422652, 51.823570703652], [5.75665732358689, 51.8235202870461], [5.75665233053553, 51.8234512086557], [5.75666052348824, 51.8233714643504], [5.75665143655685, 51.8233422630473], [5.75662451233128, 51.8232945209036], [5.75645113464502, 51.8231808063854], [5.75640950940382, 51.8231549241164], [5.75637304657825, 51.8231322348892], [5.75618426752622, 51.8229807147354], [5.75606540142836, 51.8229946115209], [5.75416801591003, 51.823216471881], [5.75397464598709, 51.8232370838329], [5.75397461263389, 51.8232370848362], [5.75303645048033, 51.8232013505364], [5.75135238278075, 51.823141862494], [5.75071181016761, 51.8232092582973], [5.75071178117299, 51.8232092601849], [5.74933186967561, 51.8231839357461], [5.74633434250151, 51.8237882595383], [5.74633423658092, 51.8237882553687], [5.74633416367708, 51.8237882079535], [5.74629654139792, 51.8237314228619], [5.74610970142153, 51.8234493269671], [5.74601133991416, 51.8232506511926], [5.74589074920381, 51.8228851281047], [5.74588212809257, 51.8228589801665], [5.7458702082473, 51.82282286516], [5.74583219254154, 51.8226628884646], [5.74580852486726, 51.8225632431774], [5.74578505764129, 51.8224645308702], [5.74529544158011, 51.8224894242818], [5.74529547740433, 51.8224897947955], [5.74529544456625, 51.8224898605114], [5.74529534473649, 51.8224898922761], [5.74279501837573, 51.8226193463887], [5.74235359765417, 51.8225999048714], [5.7413078833163, 51.8225980094526], [5.74021661612253, 51.8225939776856], [5.74021654349492, 51.8225939644218], [5.74021648955385, 51.8225939295294], [5.74008003150159, 51.8224360737061], [5.73998104804646, 51.8224535139165], [5.7398114467318, 51.8224833896552], [5.73980166960139, 51.8224851178923], [5.73896293293168, 51.8226328821368], [5.73817887315133, 51.8227914122309], [5.73816679521176, 51.8229400413088], [5.73813110076709, 51.8233794489386], [5.73810200626586, 51.8237463810079], [5.73805434629051, 51.8243498721266], [5.73802361469672, 51.8245347868894], [5.73797945980661, 51.8250930437883], [5.73799047435156, 51.8251399209644], [5.73808277695408, 51.8252337354475], [5.73812607301396, 51.8252647857408], [5.73818538521173, 51.825283429856], [5.73826893525258, 51.8252906862428], [5.73849791624957, 51.825310583907], [5.73868449374947, 51.8253448540871], [5.73881613358226, 51.8253691777592], [5.73889585390639, 51.8253911304838], [5.73905622749269, 51.8254355916001], [5.73932806142602, 51.8255336472566], [5.73961248768504, 51.8256465496965], [5.73985570383311, 51.8257649146082], [5.74004491513275, 51.8258738869533], [5.7401611222174, 51.8259535968831], [5.74021285571323, 51.8259891089124], [5.74041306197098, 51.8261135031384], [5.74058059340943, 51.8262037217991], [5.74080222288053, 51.8263156948102], [5.74096974366925, 51.8263747397365], [5.74115690237349, 51.8264258561869], [5.74133111481948, 51.8264736416889], [5.741636100082, 51.8265477081793], [5.74197517938655, 51.8265983411922], [5.74198647832391, 51.8266000233209], [5.74201629767866, 51.8266012278104], [5.74234199780348, 51.8266143978651], [5.74277252861096, 51.8266007321879], [5.74284477658464, 51.8265934848723], [5.74288524493875, 51.8265893801627], [5.74316616035236, 51.8265608517289], [5.74318697860959, 51.8265587382223], [5.74326236278683, 51.8265478408082], [5.74335021055367, 51.8265349360988], [5.74370042684532, 51.8264835898296], [5.74554460990653, 51.8261838720503], [5.74562859255939, 51.8261701325407], [5.74618815763382, 51.826070373757], [5.7465966941147, 51.8259972867876], [5.74708241327104, 51.8258960864498], [5.74785264769035, 51.825768937306], [5.74785271574534, 51.8257688013712], [5.74785275459306, 51.8257687617026], [5.74785281823676, 51.8257687390356], [5.74788510299814, 51.8257634030029], [5.74806431892173, 51.8257324972817], [5.74925695074092, 51.8255267583628], [5.74927200122997, 51.8255241591435]]], [[[5.77123938049043, 51.8237246914671], [5.76988597633723, 51.8237189711003], [5.76886019656544, 51.8237146313628], [5.76881554972274, 51.8237144441937], [5.76874216921026, 51.8237147101036], [5.76871250716936, 51.8237148156658], [5.76737969123588, 51.8237196147103], [5.76598291081711, 51.8237630669911], [5.76515747136022, 51.8238067917084], [5.7642161348364, 51.8238731030175], [5.76331624270323, 51.8239316066026], [5.76272407921392, 51.8239846142231], [5.76195546571258, 51.8240576433141], [5.76094639495789, 51.824174848756], [5.7604954567818, 51.8242225228075], [5.75994270164797, 51.8242972776467], [5.75924102078356, 51.824396852521], [5.75867424722385, 51.824470885463], [5.75863630856205, 51.8245410669991], [5.75852158999507, 51.8246854437746], [5.75850670012011, 51.8247551661667], [5.75849950892157, 51.8248202225321], [5.75855433427126, 51.8249083012856], [5.75860800198989, 51.8249695302829], [5.75860801979644, 51.824969578764], [5.75860799261492, 51.8249696246912], [5.75860793049502, 51.8249696554487], [5.75852659992094, 51.824991027957], [5.75872652021969, 51.8252338342938], [5.75877699786467, 51.8252951281573], [5.75888405028015, 51.8254270264732], [5.75897864680663, 51.8255435850016], [5.75905952671743, 51.8256432249104], [5.75936929500539, 51.8260080356434], [5.76041539949148, 51.8272295532241], [5.76096633971158, 51.8278804742412], [5.76159698590934, 51.8286174629194], [5.76169605767957, 51.8287332319383], [5.76181519576509, 51.8288720190179], [5.76255402178256, 51.8297316795023], [5.76255405155115, 51.8297316830023], [5.76279889339301, 51.829660507358], [5.76436117366459, 51.8291766135256], [5.76484150951962, 51.8290278359707], [5.76506429438982, 51.8289588227617], [5.76657092287803, 51.8284452094274], [5.7665709545872, 51.828445185056], [5.76660164597294, 51.8283888702254], [5.76660545605996, 51.8283818909541], [5.76660552815917, 51.8283818394866], [5.7668447810541, 51.8283068273588], [5.76704702043646, 51.8282434228404], [5.76767201971414, 51.8280306174222], [5.76951637541047, 51.827422596391], [5.77016791162066, 51.8272077935937], [5.77077488788618, 51.8270076853058], [5.77108020526399, 51.8269070190662], [5.77108023556504, 51.8269070000912], [5.77109758175025, 51.8268858779656], [5.77114468539773, 51.8267566227179], [5.77116193955719, 51.8267249763219], [5.77116198130166, 51.8267249384337], [5.77185992634552, 51.8263380136254], [5.77185996103594, 51.82633799913], [5.77223268148273, 51.8262281788965], [5.77222198591249, 51.8261317408253], [5.77218744624216, 51.825994037265], [5.7721365858145, 51.8258242113886], [5.77158533548353, 51.8246346085645], [5.7714759727139, 51.824412915909], [5.77145073352059, 51.8243517419995], [5.77143532137792, 51.8242828786107], [5.77142467248846, 51.8241925617216], [5.77141878999321, 51.8239383788802], [5.77143680813709, 51.8237331136288], [5.77142297968827, 51.8236635066186], [5.77124363485766, 51.8237246937037], [5.7712435638766, 51.8237247047225], [5.77123938049043, 51.8237246914671]]], [[[5.74740024181395, 51.8264026864171], [5.74738194216009, 51.8264055380705], [5.74630034774358, 51.8265924733731], [5.74510576977067, 51.8268049653741], [5.74422336004688, 51.8269543394805], [5.74353988803126, 51.8270586359229], [5.74248706952383, 51.8271848489842], [5.74135056393909, 51.8272859217951], [5.74055706699884, 51.8273351877884], [5.74078628188244, 51.8276323958321], [5.74231330579605, 51.8294952193126], [5.74271511955063, 51.829946884402], [5.74296144313985, 51.8302488489088], [5.74308197952445, 51.8303966058039], [5.74328468766576, 51.8306089391978], [5.74328471536412, 51.8306089561916], [5.74353500448435, 51.8306925588761], [5.74353506571968, 51.8306925973401], [5.7464150560577, 51.8342297191066], [5.74647880912482, 51.8343100328918], [5.74662594590432, 51.8344953515454], [5.74662597216268, 51.8344953694417], [5.74794418827405, 51.8349930695614], [5.74867339592505, 51.8348449438639], [5.74956516363679, 51.8346782051063], [5.7499149702939, 51.8346223556079], [5.75123242697971, 51.8343578859455], [5.75202334396143, 51.8342147037235], [5.75319046126149, 51.8340307298929], [5.75356480012687, 51.8339692658909], [5.75422280289779, 51.8338612155082], [5.75505868714631, 51.8337316332045], [5.75575825552523, 51.8336190483719], [5.75772037707019, 51.8333027605838], [5.75833558908024, 51.8332033613228], [5.75833568184842, 51.8332033511417], [5.75932287493439, 51.8330444789805], [5.7594789049381, 51.8330193731032], [5.76101182595444, 51.8327726597296], [5.76147030544107, 51.8327008169676], [5.76199799760985, 51.8326181177598], [5.76323458574905, 51.8324186849576], [5.76351905015919, 51.8323728027061], [5.76425243489072, 51.8322562709582], [5.76372159278439, 51.8316806002906], [5.76364910402913, 51.8315963239589], [5.7635627714713, 51.8314959757899], [5.76163234037362, 51.8292521247232], [5.76163222042602, 51.8292520055603], [5.76150066851658, 51.8291067772946], [5.76146234060924, 51.8290644500502], [5.76146232136227, 51.8290644033718], [5.76146234564211, 51.8290643574533], [5.76146240484942, 51.8290643249058], [5.76146299137613, 51.8290641465596], [5.76118429491834, 51.8287547757705], [5.76118051621676, 51.8287504464177], [5.7608689551711, 51.8283939074981], [5.7604598605267, 51.827925772488], [5.76005297089805, 51.8274601188237], [5.7597745399275, 51.8271414836413], [5.75934834833862, 51.8266537324042], [5.75863932840968, 51.8258422682168], [5.75858126483016, 51.8257758210032], [5.75850993718721, 51.8256894776495], [5.75824647090479, 51.8254043470218], [5.75819864182419, 51.8253457770301], [5.75810662432319, 51.8252285625443], [5.7580247147179, 51.825122876921], [5.7580246849453, 51.825122872521], [5.75791631635542, 51.825151339354], [5.75791621338352, 51.8251513414774], [5.75791613327197, 51.825151301283], [5.75766678342411, 51.824881514982], [5.75754537703825, 51.8248956247204], [5.75754534804284, 51.8248956266097], [5.75741549962262, 51.8248944185896], [5.75728715581348, 51.8248821413599], [5.75716275613108, 51.8248590114842], [5.7570447245966, 51.8248254797341], [5.75693523067382, 51.8247821774619], [5.75683642490056, 51.8247299073157], [5.75678549210623, 51.8246943446489], [5.75500748949134, 51.825036406845], [5.75303031029557, 51.8253963634937], [5.75202309004678, 51.8255708684001], [5.75174434919692, 51.825621073468], [5.75145054368608, 51.8256739852806], [5.75067577813091, 51.8258174467212], [5.74974728333576, 51.8259983118116], [5.74959968582741, 51.8260234412082], [5.74959959151294, 51.8260234379046], [5.74959952156826, 51.8260233985719], [5.74959950514189, 51.8260233401979], [5.7496008374361, 51.8260182418848], [5.74951632919817, 51.8260352949707], [5.74829933015306, 51.8262627916822], [5.74740024181395, 51.8264026864171]]]]}, "properties": {"key": 3, "source_names": ["Bijsterhuizen (Nijmegen/Wijchen)"], "ha": 222.6}}, {"type": "Feature", "geometry": {"type": "Polygon", "coordinates": [[[5.8176235, 51.8241068], [5.8175276, 51.8242075], [5.817356, 51.824246], [5.8169154, 51.8246841], [5.8167049, 51.8247798], [5.8157905, 51.8263116], [5.8205954, 51.8268947], [5.8207335, 51.8264579], [5.8207764, 51.8264181], [5.8217622, 51.8260033], [5.8217917, 51.8260223], [5.8218882, 51.8259925], [5.8218668, 51.8259676], [5.822371, 51.8257658], [5.8243552, 51.8249411], [5.8223898, 51.8230878], [5.8212726, 51.8222149], [5.8205679, 51.8218931], [5.8186085, 51.8230014], [5.8182478, 51.8233902], [5.817993, 51.823735], [5.8176235, 51.8241068]]]}, "properties": {"key": "NXP", "source_names": ["NXP Semiconductors"], "ha": 18.0}}]}